<?xml version="1.0" encoding="UTF-8"?>
<gpx creator="StravaGPX" xmlns:xsi="http://www.w3.org/2001/XMLSchema-instance" xsi:schemaLocation="http://www.topografix.com/GPX/1/1 http://www.topografix.com/GPX/1/1/gpx.xsd" version="1.1" xmlns="http://www.topografix.com/GPX/1/1">
 <metadata>
  <name>Alba dei Marsi 2024 - 21 Km </name>
  <desc>Alba dei Marsi 2024 - 21 Km</desc>
  <author>
   <name>Alessandro Felli</name>
   <link href="https://www.strava.com/athletes/18805384"/>
  </author>
  <copyright author="OpenStreetMap contributors">
   <year>2020</year>
   <license>https://www.openstreetmap.org/copyright</license>
  </copyright>
  <link href="https://www.strava.com/routes/3227708524809045286"/>
 </metadata>
 <trk>
  <name>Alba dei Marsi 2024 - 21 Km </name>
  <desc>Alba dei Marsi 2024 - 21 Km</desc>
  <link href="https://www.strava.com/routes/3227708524809045286"/>
  <type>running</type>
  <trkseg>
   <trkpt lat="42.06324" lon="13.413210000000001">
    <ele>777.8000000000001</ele>
   </trkpt>
   <trkpt lat="42.06374" lon="13.412680000000002">
    <ele>777.33</ele>
   </trkpt>
   <trkpt lat="42.064060000000005" lon="13.412220000000001">
    <ele>776.1600000000001</ele>
   </trkpt>
   <trkpt lat="42.06409" lon="13.4121">
    <ele>776.17</ele>
   </trkpt>
   <trkpt lat="42.064460000000004" lon="13.411760000000001">
    <ele>776.99</ele>
   </trkpt>
   <trkpt lat="42.06487000212293" lon="13.411060004527135">
    <ele>779.11</ele>
   </trkpt>
   <trkpt lat="42.06528" lon="13.41036">
    <ele>780.96</ele>
   </trkpt>
   <trkpt lat="42.065710001585586" lon="13.409785003693226">
    <ele>782.1600000000001</ele>
   </trkpt>
   <trkpt lat="42.066140000000004" lon="13.409210000000002">
    <ele>782.8000000000001</ele>
   </trkpt>
   <trkpt lat="42.06642500142258" lon="13.408640002534169">
    <ele>784.05</ele>
   </trkpt>
   <trkpt lat="42.06671" lon="13.40807">
    <ele>785.7</ele>
   </trkpt>
   <trkpt lat="42.066930000000006" lon="13.40826">
    <ele>787.36</ele>
   </trkpt>
   <trkpt lat="42.06701" lon="13.408310000000002">
    <ele>788.93</ele>
   </trkpt>
   <trkpt lat="42.067080000000004" lon="13.4083">
    <ele>788.93</ele>
   </trkpt>
   <trkpt lat="42.06712" lon="13.408230000000001">
    <ele>789.88</ele>
   </trkpt>
   <trkpt lat="42.06721" lon="13.407800000000002">
    <ele>793.12</ele>
   </trkpt>
   <trkpt lat="42.067370000000004" lon="13.40704">
    <ele>800.51</ele>
   </trkpt>
   <trkpt lat="42.06761" lon="13.40637">
    <ele>806.39</ele>
   </trkpt>
   <trkpt lat="42.067750000000004" lon="13.4061">
    <ele>808.7</ele>
   </trkpt>
   <trkpt lat="42.06781" lon="13.406060000000002">
    <ele>809.22</ele>
   </trkpt>
   <trkpt lat="42.067870000000006" lon="13.406080000000001">
    <ele>810.37</ele>
   </trkpt>
   <trkpt lat="42.06797" lon="13.40633">
    <ele>813.0</ele>
   </trkpt>
   <trkpt lat="42.068090000000005" lon="13.406200000000002">
    <ele>815.6000000000001</ele>
   </trkpt>
   <trkpt lat="42.06815" lon="13.406220000000001">
    <ele>815.71</ele>
   </trkpt>
   <trkpt lat="42.068490000000004" lon="13.40567">
    <ele>812.49</ele>
   </trkpt>
   <trkpt lat="42.068540000000006" lon="13.40568">
    <ele>812.49</ele>
   </trkpt>
   <trkpt lat="42.068900000000006" lon="13.40553">
    <ele>807.7800000000001</ele>
   </trkpt>
   <trkpt lat="42.06974" lon="13.405410000000002">
    <ele>810.82</ele>
   </trkpt>
   <trkpt lat="42.06991" lon="13.405460000000001">
    <ele>811.5400000000001</ele>
   </trkpt>
   <trkpt lat="42.07007" lon="13.40544">
    <ele>811.91</ele>
   </trkpt>
   <trkpt lat="42.070750000000004" lon="13.405310000000002">
    <ele>814.8700000000001</ele>
   </trkpt>
   <trkpt lat="42.070980000000006" lon="13.4052">
    <ele>815.95</ele>
   </trkpt>
   <trkpt lat="42.071160000000006" lon="13.405170000000002">
    <ele>816.08</ele>
   </trkpt>
   <trkpt lat="42.071180000000005" lon="13.404890000000002">
    <ele>814.0500000000001</ele>
   </trkpt>
   <trkpt lat="42.07139" lon="13.40455">
    <ele>807.33</ele>
   </trkpt>
   <trkpt lat="42.071470000000005" lon="13.40432">
    <ele>805.2900000000001</ele>
   </trkpt>
   <trkpt lat="42.07146" lon="13.404110000000001">
    <ele>803.5300000000001</ele>
   </trkpt>
   <trkpt lat="42.071360000000006" lon="13.40385">
    <ele>796.7700000000001</ele>
   </trkpt>
   <trkpt lat="42.071310000000004" lon="13.40365">
    <ele>794.4300000000001</ele>
   </trkpt>
   <trkpt lat="42.071340000000006" lon="13.403480000000002">
    <ele>792.73</ele>
   </trkpt>
   <trkpt lat="42.07148" lon="13.40332">
    <ele>791.2500000000001</ele>
   </trkpt>
   <trkpt lat="42.07159" lon="13.40323">
    <ele>790.6500000000001</ele>
   </trkpt>
   <trkpt lat="42.07237000000001" lon="13.40281">
    <ele>785.5300000000001</ele>
   </trkpt>
   <trkpt lat="42.072630000000004" lon="13.40262">
    <ele>784.2500000000001</ele>
   </trkpt>
   <trkpt lat="42.07267" lon="13.40225">
    <ele>779.3500000000001</ele>
   </trkpt>
   <trkpt lat="42.072880000000005" lon="13.401980000000002">
    <ele>778.34</ele>
   </trkpt>
   <trkpt lat="42.07339" lon="13.40164">
    <ele>780.6</ele>
   </trkpt>
   <trkpt lat="42.073640000000005" lon="13.40108">
    <ele>777.36</ele>
   </trkpt>
   <trkpt lat="42.07334" lon="13.400720000000002">
    <ele>771.41</ele>
   </trkpt>
   <trkpt lat="42.07296" lon="13.400630000000001">
    <ele>767.0</ele>
   </trkpt>
   <trkpt lat="42.07265" lon="13.400360000000001">
    <ele>763.32</ele>
   </trkpt>
   <trkpt lat="42.072570000000006" lon="13.399770000000002">
    <ele>758.4000000000001</ele>
   </trkpt>
   <trkpt lat="42.07206" lon="13.39896">
    <ele>751.8100000000001</ele>
   </trkpt>
   <trkpt lat="42.071580000000004" lon="13.398660000000001">
    <ele>746.08</ele>
   </trkpt>
   <trkpt lat="42.071250000000006" lon="13.39822">
    <ele>742.7300000000001</ele>
   </trkpt>
   <trkpt lat="42.07099" lon="13.398100000000001">
    <ele>740.26</ele>
   </trkpt>
   <trkpt lat="42.07095" lon="13.397210000000001">
    <ele>735.6</ele>
   </trkpt>
   <trkpt lat="42.070890000000006" lon="13.39667">
    <ele>733.7900000000001</ele>
   </trkpt>
   <trkpt lat="42.07086" lon="13.396630000000002">
    <ele>733.7900000000001</ele>
   </trkpt>
   <trkpt lat="42.07094" lon="13.396590000000002">
    <ele>733.65</ele>
   </trkpt>
   <trkpt lat="42.07152000000001" lon="13.396030000000001">
    <ele>732.8100000000001</ele>
   </trkpt>
   <trkpt lat="42.07197" lon="13.395520000000001">
    <ele>733.1700000000001</ele>
   </trkpt>
   <trkpt lat="42.07244" lon="13.39507">
    <ele>734.35</ele>
   </trkpt>
   <trkpt lat="42.072700000000005" lon="13.394750000000002">
    <ele>735.5</ele>
   </trkpt>
   <trkpt lat="42.07276" lon="13.394570000000002">
    <ele>735.69</ele>
   </trkpt>
   <trkpt lat="42.073150000000005" lon="13.393720000000002">
    <ele>736.5500000000001</ele>
   </trkpt>
   <trkpt lat="42.07332" lon="13.393060000000002">
    <ele>736.6700000000001</ele>
   </trkpt>
   <trkpt lat="42.07342000232085" lon="13.392330001093553">
    <ele>737.0500000000001</ele>
   </trkpt>
   <trkpt lat="42.07352" lon="13.3916">
    <ele>737.95</ele>
   </trkpt>
   <trkpt lat="42.073570000000004" lon="13.39104">
    <ele>739.45</ele>
   </trkpt>
   <trkpt lat="42.073570000000004" lon="13.39103">
    <ele>739.47</ele>
   </trkpt>
   <trkpt lat="42.07388" lon="13.39103">
    <ele>742.74</ele>
   </trkpt>
   <trkpt lat="42.074250000000006" lon="13.390960000000002">
    <ele>746.6700000000001</ele>
   </trkpt>
   <trkpt lat="42.074400000000004" lon="13.39099">
    <ele>746.7300000000001</ele>
   </trkpt>
   <trkpt lat="42.07443000000001" lon="13.391070000000001">
    <ele>746.5500000000001</ele>
   </trkpt>
   <trkpt lat="42.074470000000005" lon="13.39202">
    <ele>750.0600000000001</ele>
   </trkpt>
   <trkpt lat="42.074380000000005" lon="13.39249">
    <ele>751.9200000000001</ele>
   </trkpt>
   <trkpt lat="42.07435" lon="13.392920000000002">
    <ele>751.83</ele>
   </trkpt>
   <trkpt lat="42.074290000000005" lon="13.393130000000001">
    <ele>751.82</ele>
   </trkpt>
   <trkpt lat="42.074270000000006" lon="13.393260000000001">
    <ele>752.07</ele>
   </trkpt>
   <trkpt lat="42.07433" lon="13.393510000000001">
    <ele>752.9200000000001</ele>
   </trkpt>
   <trkpt lat="42.07437" lon="13.393590000000001">
    <ele>752.9200000000001</ele>
   </trkpt>
   <trkpt lat="42.07435" lon="13.39456">
    <ele>756.4200000000001</ele>
   </trkpt>
   <trkpt lat="42.074400000000004" lon="13.39493">
    <ele>759.57</ele>
   </trkpt>
   <trkpt lat="42.07473" lon="13.39531">
    <ele>766.85</ele>
   </trkpt>
   <trkpt lat="42.07526" lon="13.395570000000001">
    <ele>778.19</ele>
   </trkpt>
   <trkpt lat="42.07537000000001" lon="13.395800000000001">
    <ele>780.5500000000001</ele>
   </trkpt>
   <trkpt lat="42.075660000000006" lon="13.39624">
    <ele>785.8100000000001</ele>
   </trkpt>
   <trkpt lat="42.07607" lon="13.39653">
    <ele>793.64</ele>
   </trkpt>
   <trkpt lat="42.07621" lon="13.39638">
    <ele>796.46</ele>
   </trkpt>
   <trkpt lat="42.07631000000001" lon="13.396030000000001">
    <ele>797.8000000000001</ele>
   </trkpt>
   <trkpt lat="42.07672" lon="13.39559">
    <ele>803.09</ele>
   </trkpt>
   <trkpt lat="42.07688" lon="13.39521">
    <ele>803.59</ele>
   </trkpt>
   <trkpt lat="42.07715" lon="13.394750000000002">
    <ele>807.6300000000001</ele>
   </trkpt>
   <trkpt lat="42.076980000000006" lon="13.39395">
    <ele>805.0600000000001</ele>
   </trkpt>
   <trkpt lat="42.07686" lon="13.393690000000001">
    <ele>802.27</ele>
   </trkpt>
   <trkpt lat="42.07674" lon="13.39324">
    <ele>797.24</ele>
   </trkpt>
   <trkpt lat="42.07683" lon="13.392780000000002">
    <ele>793.97</ele>
   </trkpt>
   <trkpt lat="42.07703" lon="13.39253">
    <ele>795.1</ele>
   </trkpt>
   <trkpt lat="42.07761" lon="13.392970000000002">
    <ele>809.71</ele>
   </trkpt>
   <trkpt lat="42.077960000000004" lon="13.39329">
    <ele>818.7200000000001</ele>
   </trkpt>
   <trkpt lat="42.07815" lon="13.393410000000001">
    <ele>822.79</ele>
   </trkpt>
   <trkpt lat="42.07851" lon="13.393530000000002">
    <ele>827.9900000000001</ele>
   </trkpt>
   <trkpt lat="42.078630000000004" lon="13.393670000000002">
    <ele>829.5300000000001</ele>
   </trkpt>
   <trkpt lat="42.07887" lon="13.394390000000001">
    <ele>830.4800000000001</ele>
   </trkpt>
   <trkpt lat="42.0792" lon="13.39483">
    <ele>829.5400000000001</ele>
   </trkpt>
   <trkpt lat="42.079530000000005" lon="13.395550000000002">
    <ele>828.7800000000001</ele>
   </trkpt>
   <trkpt lat="42.07947" lon="13.39572">
    <ele>831.0500000000001</ele>
   </trkpt>
   <trkpt lat="42.07923" lon="13.395950000000001">
    <ele>834.94</ele>
   </trkpt>
   <trkpt lat="42.07856" lon="13.396410000000001">
    <ele>832.57</ele>
   </trkpt>
   <trkpt lat="42.078300000000006" lon="13.396650000000001">
    <ele>830.69</ele>
   </trkpt>
   <trkpt lat="42.07826" lon="13.396780000000001">
    <ele>831.03</ele>
   </trkpt>
   <trkpt lat="42.0782" lon="13.397300000000001">
    <ele>833.96</ele>
   </trkpt>
   <trkpt lat="42.07809" lon="13.39764">
    <ele>835.4300000000001</ele>
   </trkpt>
   <trkpt lat="42.07813" lon="13.397910000000001">
    <ele>839.2100000000002</ele>
   </trkpt>
   <trkpt lat="42.07806" lon="13.397940000000002">
    <ele>838.44</ele>
   </trkpt>
   <trkpt lat="42.07797" lon="13.397920000000001">
    <ele>836.3800000000001</ele>
   </trkpt>
   <trkpt lat="42.07788" lon="13.397950000000002">
    <ele>835.7500000000001</ele>
   </trkpt>
   <trkpt lat="42.07777" lon="13.398050000000001">
    <ele>833.97</ele>
   </trkpt>
   <trkpt lat="42.077560000000005" lon="13.398050000000001">
    <ele>831.7800000000001</ele>
   </trkpt>
   <trkpt lat="42.07741" lon="13.398190000000001">
    <ele>829.2100000000002</ele>
   </trkpt>
   <trkpt lat="42.07719" lon="13.398510000000002">
    <ele>827.32</ele>
   </trkpt>
   <trkpt lat="42.07692" lon="13.39864">
    <ele>827.0200000000001</ele>
   </trkpt>
   <trkpt lat="42.076330000000006" lon="13.39882">
    <ele>828.4800000000001</ele>
   </trkpt>
   <trkpt lat="42.076100000000004" lon="13.39891">
    <ele>828.6600000000001</ele>
   </trkpt>
   <trkpt lat="42.075900000000004" lon="13.399080000000001">
    <ele>828.1500000000001</ele>
   </trkpt>
   <trkpt lat="42.075900000000004" lon="13.399090000000001">
    <ele>828.1400000000001</ele>
   </trkpt>
   <trkpt lat="42.07593000000001" lon="13.39925">
    <ele>830.59</ele>
   </trkpt>
   <trkpt lat="42.07594" lon="13.399610000000001">
    <ele>834.72</ele>
   </trkpt>
   <trkpt lat="42.076" lon="13.39972">
    <ele>836.9100000000001</ele>
   </trkpt>
   <trkpt lat="42.07612" lon="13.399790000000001">
    <ele>838.2400000000001</ele>
   </trkpt>
   <trkpt lat="42.076280000000004" lon="13.400020000000001">
    <ele>839.9300000000001</ele>
   </trkpt>
   <trkpt lat="42.07683" lon="13.40066">
    <ele>842.6</ele>
   </trkpt>
   <trkpt lat="42.07694" lon="13.400850000000002">
    <ele>842.47</ele>
   </trkpt>
   <trkpt lat="42.07701" lon="13.401060000000001">
    <ele>842.4</ele>
   </trkpt>
   <trkpt lat="42.077000000000005" lon="13.40126">
    <ele>842.11</ele>
   </trkpt>
   <trkpt lat="42.07672" lon="13.40173">
    <ele>842.4</ele>
   </trkpt>
   <trkpt lat="42.07641" lon="13.40238">
    <ele>841.22</ele>
   </trkpt>
   <trkpt lat="42.07640000000001" lon="13.402750000000001">
    <ele>840.73</ele>
   </trkpt>
   <trkpt lat="42.07656" lon="13.403430000000002">
    <ele>841.8000000000001</ele>
   </trkpt>
   <trkpt lat="42.07654" lon="13.403760000000002">
    <ele>842.9100000000001</ele>
   </trkpt>
   <trkpt lat="42.07659" lon="13.403920000000001">
    <ele>843.1200000000001</ele>
   </trkpt>
   <trkpt lat="42.07658000000001" lon="13.404040000000002">
    <ele>842.95</ele>
   </trkpt>
   <trkpt lat="42.07649000000001" lon="13.404060000000001">
    <ele>842.1800000000001</ele>
   </trkpt>
   <trkpt lat="42.076" lon="13.404000000000002">
    <ele>834.85</ele>
   </trkpt>
   <trkpt lat="42.075790000000005" lon="13.40389">
    <ele>834.0200000000001</ele>
   </trkpt>
   <trkpt lat="42.075610000000005" lon="13.40393">
    <ele>834.1800000000001</ele>
   </trkpt>
   <trkpt lat="42.075250000000004" lon="13.40393">
    <ele>834.91</ele>
   </trkpt>
   <trkpt lat="42.075120000000005" lon="13.40399">
    <ele>836.4100000000001</ele>
   </trkpt>
   <trkpt lat="42.07511" lon="13.40413">
    <ele>838.47</ele>
   </trkpt>
   <trkpt lat="42.07511" lon="13.40412">
    <ele>838.47</ele>
   </trkpt>
   <trkpt lat="42.07515" lon="13.40426">
    <ele>841.95</ele>
   </trkpt>
   <trkpt lat="42.07542" lon="13.404520000000002">
    <ele>846.98</ele>
   </trkpt>
   <trkpt lat="42.075860000000006" lon="13.404860000000001">
    <ele>856.0300000000001</ele>
   </trkpt>
   <trkpt lat="42.07598" lon="13.40483">
    <ele>856.83</ele>
   </trkpt>
   <trkpt lat="42.07612" lon="13.404840000000002">
    <ele>858.22</ele>
   </trkpt>
   <trkpt lat="42.07625" lon="13.40488">
    <ele>859.0600000000001</ele>
   </trkpt>
   <trkpt lat="42.076570000000004" lon="13.404770000000001">
    <ele>861.23</ele>
   </trkpt>
   <trkpt lat="42.076690000000006" lon="13.404810000000001">
    <ele>862.71</ele>
   </trkpt>
   <trkpt lat="42.07677" lon="13.404900000000001">
    <ele>863.2700000000001</ele>
   </trkpt>
   <trkpt lat="42.0767" lon="13.405030000000002">
    <ele>865.08</ele>
   </trkpt>
   <trkpt lat="42.076570000000004" lon="13.40511">
    <ele>866.8000000000001</ele>
   </trkpt>
   <trkpt lat="42.07649000000001" lon="13.405220000000002">
    <ele>868.6</ele>
   </trkpt>
   <trkpt lat="42.076370000000004" lon="13.405320000000001">
    <ele>871.21</ele>
   </trkpt>
   <trkpt lat="42.076330000000006" lon="13.405400000000002">
    <ele>871.21</ele>
   </trkpt>
   <trkpt lat="42.07636" lon="13.405460000000001">
    <ele>872.3400000000001</ele>
   </trkpt>
   <trkpt lat="42.07649000000001" lon="13.40549">
    <ele>874.19</ele>
   </trkpt>
   <trkpt lat="42.076550000000005" lon="13.40558">
    <ele>874.19</ele>
   </trkpt>
   <trkpt lat="42.076510000000006" lon="13.405700000000001">
    <ele>876.2900000000001</ele>
   </trkpt>
   <trkpt lat="42.07652" lon="13.405690000000002">
    <ele>876.2900000000001</ele>
   </trkpt>
   <trkpt lat="42.07645" lon="13.405790000000001">
    <ele>878.0600000000001</ele>
   </trkpt>
   <trkpt lat="42.076350000000005" lon="13.405880000000002">
    <ele>879.21</ele>
   </trkpt>
   <trkpt lat="42.076280000000004" lon="13.405980000000001">
    <ele>880.83</ele>
   </trkpt>
   <trkpt lat="42.076" lon="13.406160000000002">
    <ele>883.6700000000001</ele>
   </trkpt>
   <trkpt lat="42.07564" lon="13.405970000000002">
    <ele>886.6700000000001</ele>
   </trkpt>
   <trkpt lat="42.075590000000005" lon="13.406">
    <ele>886.9200000000001</ele>
   </trkpt>
   <trkpt lat="42.075540000000004" lon="13.405970000000002">
    <ele>887.3100000000001</ele>
   </trkpt>
   <trkpt lat="42.075430000000004" lon="13.40595">
    <ele>887.48</ele>
   </trkpt>
   <trkpt lat="42.075210000000006" lon="13.40582">
    <ele>886.69</ele>
   </trkpt>
   <trkpt lat="42.07493" lon="13.405800000000001">
    <ele>885.46</ele>
   </trkpt>
   <trkpt lat="42.07489" lon="13.405830000000002">
    <ele>884.59</ele>
   </trkpt>
   <trkpt lat="42.074850000000005" lon="13.405920000000002">
    <ele>884.59</ele>
   </trkpt>
   <trkpt lat="42.074830000000006" lon="13.40605">
    <ele>884.0100000000001</ele>
   </trkpt>
   <trkpt lat="42.074650000000005" lon="13.406390000000002">
    <ele>883.7600000000001</ele>
   </trkpt>
   <trkpt lat="42.07432" lon="13.40676">
    <ele>884.0600000000001</ele>
   </trkpt>
   <trkpt lat="42.07414000000001" lon="13.407200000000001">
    <ele>884.23</ele>
   </trkpt>
   <trkpt lat="42.074070000000006" lon="13.40732">
    <ele>884.23</ele>
   </trkpt>
   <trkpt lat="42.07386" lon="13.407440000000001">
    <ele>884.5400000000001</ele>
   </trkpt>
   <trkpt lat="42.07365" lon="13.407630000000001">
    <ele>885.7</ele>
   </trkpt>
   <trkpt lat="42.073040000000006" lon="13.408130000000002">
    <ele>883.9500000000002</ele>
   </trkpt>
   <trkpt lat="42.07282" lon="13.408150000000001">
    <ele>883.4900000000001</ele>
   </trkpt>
   <trkpt lat="42.0724" lon="13.40807">
    <ele>882.62</ele>
   </trkpt>
   <trkpt lat="42.07222" lon="13.40812">
    <ele>883.3000000000001</ele>
   </trkpt>
   <trkpt lat="42.072160000000004" lon="13.408190000000001">
    <ele>883.71</ele>
   </trkpt>
   <trkpt lat="42.072140000000005" lon="13.408240000000001">
    <ele>883.71</ele>
   </trkpt>
   <trkpt lat="42.072140000000005" lon="13.408310000000002">
    <ele>884.19</ele>
   </trkpt>
   <trkpt lat="42.07283" lon="13.40844">
    <ele>888.3000000000001</ele>
   </trkpt>
   <trkpt lat="42.073260000000005" lon="13.408430000000001">
    <ele>892.87</ele>
   </trkpt>
   <trkpt lat="42.07395" lon="13.408290000000001">
    <ele>904.1300000000001</ele>
   </trkpt>
   <trkpt lat="42.07424" lon="13.408270000000002">
    <ele>907.97</ele>
   </trkpt>
   <trkpt lat="42.0748" lon="13.408420000000001">
    <ele>918.6700000000001</ele>
   </trkpt>
   <trkpt lat="42.075320000000005" lon="13.408380000000001">
    <ele>927.0100000000001</ele>
   </trkpt>
   <trkpt lat="42.07584000000001" lon="13.40863">
    <ele>935.76</ele>
   </trkpt>
   <trkpt lat="42.076670000072575" lon="13.408809997631089">
    <ele>946.2900000000001</ele>
   </trkpt>
   <trkpt lat="42.0775" lon="13.408990000000001">
    <ele>954.12</ele>
   </trkpt>
   <trkpt lat="42.07806" lon="13.40929">
    <ele>958.2</ele>
   </trkpt>
   <trkpt lat="42.07875000000001" lon="13.409120000000001">
    <ele>962.8000000000001</ele>
   </trkpt>
   <trkpt lat="42.07921" lon="13.409540000000002">
    <ele>970.5100000000001</ele>
   </trkpt>
   <trkpt lat="42.079800000000006" lon="13.408970000000002">
    <ele>970.1200000000001</ele>
   </trkpt>
   <trkpt lat="42.0801850006373" lon="13.408570002486373">
    <ele>970.1800000000001</ele>
   </trkpt>
   <trkpt lat="42.08057" lon="13.408170000000002">
    <ele>969.5400000000001</ele>
   </trkpt>
   <trkpt lat="42.08048" lon="13.407850000000002">
    <ele>966.22</ele>
   </trkpt>
   <trkpt lat="42.080200000000005" lon="13.40746">
    <ele>962.34</ele>
   </trkpt>
   <trkpt lat="42.08021" lon="13.40736">
    <ele>962.34</ele>
   </trkpt>
   <trkpt lat="42.08026" lon="13.407250000000001">
    <ele>960.86</ele>
   </trkpt>
   <trkpt lat="42.080310000000004" lon="13.407280000000002">
    <ele>961.08</ele>
   </trkpt>
   <trkpt lat="42.080360000000006" lon="13.40722">
    <ele>961.08</ele>
   </trkpt>
   <trkpt lat="42.08052" lon="13.407210000000001">
    <ele>958.0500000000001</ele>
   </trkpt>
   <trkpt lat="42.08059" lon="13.40717">
    <ele>956.98</ele>
   </trkpt>
   <trkpt lat="42.08075" lon="13.40703">
    <ele>954.97</ele>
   </trkpt>
   <trkpt lat="42.08122" lon="13.406540000000001">
    <ele>946.4300000000001</ele>
   </trkpt>
   <trkpt lat="42.081340000000004" lon="13.406440000000002">
    <ele>941.4100000000001</ele>
   </trkpt>
   <trkpt lat="42.081540000000004" lon="13.406160000000002">
    <ele>938.36</ele>
   </trkpt>
   <trkpt lat="42.08166000000001" lon="13.406030000000001">
    <ele>934.97</ele>
   </trkpt>
   <trkpt lat="42.081950000000006" lon="13.405920000000002">
    <ele>931.7800000000001</ele>
   </trkpt>
   <trkpt lat="42.08221" lon="13.40576">
    <ele>926.22</ele>
   </trkpt>
   <trkpt lat="42.0825" lon="13.405740000000002">
    <ele>922.78</ele>
   </trkpt>
   <trkpt lat="42.083070000000006" lon="13.4059">
    <ele>913.05</ele>
   </trkpt>
   <trkpt lat="42.083310000000004" lon="13.406080000000001">
    <ele>912.08</ele>
   </trkpt>
   <trkpt lat="42.08372000000001" lon="13.40609">
    <ele>907.1800000000001</ele>
   </trkpt>
   <trkpt lat="42.084450000000004" lon="13.405660000000001">
    <ele>892.6</ele>
   </trkpt>
   <trkpt lat="42.08489" lon="13.405660000000001">
    <ele>889.38</ele>
   </trkpt>
   <trkpt lat="42.0848" lon="13.4052">
    <ele>884.14</ele>
   </trkpt>
   <trkpt lat="42.085330000000006" lon="13.40502">
    <ele>879.7300000000001</ele>
   </trkpt>
   <trkpt lat="42.08588" lon="13.404910000000001">
    <ele>878.6100000000001</ele>
   </trkpt>
   <trkpt lat="42.08588" lon="13.404790000000002">
    <ele>877.2800000000001</ele>
   </trkpt>
   <trkpt lat="42.08581" lon="13.404580000000001">
    <ele>874.23</ele>
   </trkpt>
   <trkpt lat="42.08579" lon="13.40441">
    <ele>871.5500000000001</ele>
   </trkpt>
   <trkpt lat="42.085800000000006" lon="13.40427">
    <ele>867.59</ele>
   </trkpt>
   <trkpt lat="42.085910000000005" lon="13.40394">
    <ele>864.2700000000001</ele>
   </trkpt>
   <trkpt lat="42.08605" lon="13.4038">
    <ele>862.2</ele>
   </trkpt>
   <trkpt lat="42.086290000000005" lon="13.40366">
    <ele>860.4900000000001</ele>
   </trkpt>
   <trkpt lat="42.08635" lon="13.40356">
    <ele>859.87</ele>
   </trkpt>
   <trkpt lat="42.08646" lon="13.403440000000002">
    <ele>858.38</ele>
   </trkpt>
   <trkpt lat="42.08657" lon="13.403360000000001">
    <ele>856.1700000000001</ele>
   </trkpt>
   <trkpt lat="42.08661" lon="13.403250000000002">
    <ele>854.46</ele>
   </trkpt>
   <trkpt lat="42.08662" lon="13.40299">
    <ele>850.26</ele>
   </trkpt>
   <trkpt lat="42.086670000000005" lon="13.40277">
    <ele>848.4</ele>
   </trkpt>
   <trkpt lat="42.0874" lon="13.40243">
    <ele>844.2700000000001</ele>
   </trkpt>
   <trkpt lat="42.087720000000004" lon="13.402210000000002">
    <ele>843.0500000000001</ele>
   </trkpt>
   <trkpt lat="42.08784" lon="13.402180000000001">
    <ele>843.0500000000001</ele>
   </trkpt>
   <trkpt lat="42.08791" lon="13.4021">
    <ele>842.74</ele>
   </trkpt>
   <trkpt lat="42.08839500046268" lon="13.40179500229484">
    <ele>842.67</ele>
   </trkpt>
   <trkpt lat="42.08888" lon="13.40149">
    <ele>842.7</ele>
   </trkpt>
   <trkpt lat="42.089530002509115" lon="13.400740007607405">
    <ele>841.2400000000001</ele>
   </trkpt>
   <trkpt lat="42.090180000000004" lon="13.39999">
    <ele>838.9700000000001</ele>
   </trkpt>
   <trkpt lat="42.090320000000006" lon="13.39981">
    <ele>838.2700000000001</ele>
   </trkpt>
   <trkpt lat="42.090770000000006" lon="13.39933">
    <ele>835.77</ele>
   </trkpt>
   <trkpt lat="42.09084" lon="13.399180000000001">
    <ele>835.1400000000001</ele>
   </trkpt>
   <trkpt lat="42.09084" lon="13.399170000000002">
    <ele>835.13</ele>
   </trkpt>
   <trkpt lat="42.09095000000001" lon="13.399120000000002">
    <ele>834.6800000000001</ele>
   </trkpt>
   <trkpt lat="42.09102" lon="13.399130000000001">
    <ele>834.6800000000001</ele>
   </trkpt>
   <trkpt lat="42.09107" lon="13.399180000000001">
    <ele>834.6800000000001</ele>
   </trkpt>
   <trkpt lat="42.09114" lon="13.39934">
    <ele>833.6600000000001</ele>
   </trkpt>
   <trkpt lat="42.09123" lon="13.39944">
    <ele>833.37</ele>
   </trkpt>
   <trkpt lat="42.09136" lon="13.399460000000001">
    <ele>833.0200000000001</ele>
   </trkpt>
   <trkpt lat="42.09165" lon="13.3993">
    <ele>832.9200000000001</ele>
   </trkpt>
   <trkpt lat="42.09176" lon="13.399270000000001">
    <ele>832.97</ele>
   </trkpt>
   <trkpt lat="42.09226" lon="13.39925">
    <ele>835.0400000000001</ele>
   </trkpt>
   <trkpt lat="42.092360000000006" lon="13.399310000000002">
    <ele>835.33</ele>
   </trkpt>
   <trkpt lat="42.09246" lon="13.39944">
    <ele>836.0000000000001</ele>
   </trkpt>
   <trkpt lat="42.092650000000006" lon="13.399790000000001">
    <ele>837.52</ele>
   </trkpt>
   <trkpt lat="42.09275" lon="13.400010000000002">
    <ele>838.2400000000001</ele>
   </trkpt>
   <trkpt lat="42.09288" lon="13.400450000000001">
    <ele>839.19</ele>
   </trkpt>
   <trkpt lat="42.093" lon="13.401010000000001">
    <ele>840.3000000000001</ele>
   </trkpt>
   <trkpt lat="42.093120000000006" lon="13.40141">
    <ele>842.4800000000001</ele>
   </trkpt>
   <trkpt lat="42.09313" lon="13.401420000000002">
    <ele>842.4800000000001</ele>
   </trkpt>
   <trkpt lat="42.09317" lon="13.401660000000001">
    <ele>843.19</ele>
   </trkpt>
   <trkpt lat="42.09322" lon="13.402540000000002">
    <ele>848.77</ele>
   </trkpt>
   <trkpt lat="42.09322" lon="13.402930000000001">
    <ele>851.9700000000001</ele>
   </trkpt>
   <trkpt lat="42.093270000000004" lon="13.40366">
    <ele>854.2400000000001</ele>
   </trkpt>
   <trkpt lat="42.093270000000004" lon="13.403830000000001">
    <ele>856.92</ele>
   </trkpt>
   <trkpt lat="42.093230000000005" lon="13.403950000000002">
    <ele>857.28</ele>
   </trkpt>
   <trkpt lat="42.093210000000006" lon="13.404060000000001">
    <ele>857.95</ele>
   </trkpt>
   <trkpt lat="42.093160000000005" lon="13.40399">
    <ele>857.95</ele>
   </trkpt>
   <trkpt lat="42.09302" lon="13.40408">
    <ele>858.82</ele>
   </trkpt>
   <trkpt lat="42.092670000000005" lon="13.404470000000002">
    <ele>860.92</ele>
   </trkpt>
   <trkpt lat="42.09246" lon="13.404580000000001">
    <ele>861.23</ele>
   </trkpt>
   <trkpt lat="42.0921" lon="13.40487">
    <ele>861.33</ele>
   </trkpt>
   <trkpt lat="42.09178" lon="13.40502">
    <ele>861.59</ele>
   </trkpt>
   <trkpt lat="42.091150000000006" lon="13.40515">
    <ele>858.0200000000001</ele>
   </trkpt>
   <trkpt lat="42.09105" lon="13.40525">
    <ele>857.5300000000001</ele>
   </trkpt>
   <trkpt lat="42.091" lon="13.405550000000002">
    <ele>858.3600000000001</ele>
   </trkpt>
   <trkpt lat="42.09091" lon="13.40563">
    <ele>858.3600000000001</ele>
   </trkpt>
   <trkpt lat="42.090610000000005" lon="13.405730000000002">
    <ele>861.94</ele>
   </trkpt>
   <trkpt lat="42.09012000064858" lon="13.406155003400535">
    <ele>866.9100000000001</ele>
   </trkpt>
   <trkpt lat="42.08963000000001" lon="13.406580000000002">
    <ele>877.71</ele>
   </trkpt>
   <trkpt lat="42.08905" lon="13.406860000000002">
    <ele>888.65</ele>
   </trkpt>
   <trkpt lat="42.08885" lon="13.406910000000002">
    <ele>891.6400000000001</ele>
   </trkpt>
   <trkpt lat="42.088420000000006" lon="13.40713">
    <ele>900.2500000000001</ele>
   </trkpt>
   <trkpt lat="42.088190000000004" lon="13.407290000000001">
    <ele>907.1800000000001</ele>
   </trkpt>
   <trkpt lat="42.087770000000006" lon="13.407490000000001">
    <ele>914.5600000000001</ele>
   </trkpt>
   <trkpt lat="42.08764" lon="13.407470000000002">
    <ele>913.99</ele>
   </trkpt>
   <trkpt lat="42.087500000000006" lon="13.407330000000002">
    <ele>913.12</ele>
   </trkpt>
   <trkpt lat="42.08704" lon="13.40736">
    <ele>912.11</ele>
   </trkpt>
   <trkpt lat="42.0865" lon="13.407700000000002">
    <ele>912.4700000000001</ele>
   </trkpt>
   <trkpt lat="42.08614" lon="13.40788">
    <ele>912.4300000000001</ele>
   </trkpt>
   <trkpt lat="42.08559" lon="13.407950000000001">
    <ele>912.11</ele>
   </trkpt>
   <trkpt lat="42.08476" lon="13.40816">
    <ele>924.6400000000001</ele>
   </trkpt>
   <trkpt lat="42.08397" lon="13.408700000000001">
    <ele>938.7900000000001</ele>
   </trkpt>
   <trkpt lat="42.083850000000005" lon="13.408800000000001">
    <ele>940.1400000000001</ele>
   </trkpt>
   <trkpt lat="42.0837" lon="13.408850000000001">
    <ele>941.7500000000001</ele>
   </trkpt>
   <trkpt lat="42.08355" lon="13.408930000000002">
    <ele>942.6600000000001</ele>
   </trkpt>
   <trkpt lat="42.08339" lon="13.408970000000002">
    <ele>945.2800000000001</ele>
   </trkpt>
   <trkpt lat="42.082750000000004" lon="13.40947">
    <ele>963.35</ele>
   </trkpt>
   <trkpt lat="42.08272" lon="13.40947">
    <ele>963.35</ele>
   </trkpt>
   <trkpt lat="42.08265" lon="13.409500000000001">
    <ele>963.7500000000001</ele>
   </trkpt>
   <trkpt lat="42.08254" lon="13.40961">
    <ele>964.7700000000001</ele>
   </trkpt>
   <trkpt lat="42.08232" lon="13.409930000000001">
    <ele>966.6300000000001</ele>
   </trkpt>
   <trkpt lat="42.08225" lon="13.409980000000001">
    <ele>966.8100000000001</ele>
   </trkpt>
   <trkpt lat="42.082240000000006" lon="13.409980000000001">
    <ele>966.82</ele>
   </trkpt>
   <trkpt lat="42.08223" lon="13.41008">
    <ele>966.82</ele>
   </trkpt>
   <trkpt lat="42.082600000000006" lon="13.410900000000002">
    <ele>981.5800000000002</ele>
   </trkpt>
   <trkpt lat="42.08315" lon="13.4113">
    <ele>988.3000000000001</ele>
   </trkpt>
   <trkpt lat="42.083510000000004" lon="13.411660000000001">
    <ele>996.9700000000001</ele>
   </trkpt>
   <trkpt lat="42.08399" lon="13.411570000000001">
    <ele>998.3900000000001</ele>
   </trkpt>
   <trkpt lat="42.084360000000004" lon="13.411710000000001">
    <ele>1002.1</ele>
   </trkpt>
   <trkpt lat="42.0848" lon="13.411600000000002">
    <ele>1009.1800000000002</ele>
   </trkpt>
   <trkpt lat="42.08482" lon="13.411790000000002">
    <ele>1009.77</ele>
   </trkpt>
   <trkpt lat="42.08489" lon="13.411950000000001">
    <ele>1012.9200000000001</ele>
   </trkpt>
   <trkpt lat="42.084860000000006" lon="13.412">
    <ele>1013.8500000000001</ele>
   </trkpt>
   <trkpt lat="42.084790000000005" lon="13.412020000000002">
    <ele>1014.2600000000001</ele>
   </trkpt>
   <trkpt lat="42.08456" lon="13.412030000000001">
    <ele>1015.73</ele>
   </trkpt>
   <trkpt lat="42.0844" lon="13.412110000000002">
    <ele>1016.0</ele>
   </trkpt>
   <trkpt lat="42.084070000000004" lon="13.412090000000001">
    <ele>1014.14</ele>
   </trkpt>
   <trkpt lat="42.08361" lon="13.411980000000002">
    <ele>1011.6200000000001</ele>
   </trkpt>
   <trkpt lat="42.08321" lon="13.411970000000002">
    <ele>1010.27</ele>
   </trkpt>
   <trkpt lat="42.08294" lon="13.411930000000002">
    <ele>1009.1800000000002</ele>
   </trkpt>
   <trkpt lat="42.082800000000006" lon="13.41177">
    <ele>1006.96</ele>
   </trkpt>
   <trkpt lat="42.08261" lon="13.411760000000001">
    <ele>1003.0300000000001</ele>
   </trkpt>
   <trkpt lat="42.08234" lon="13.41186">
    <ele>999.83</ele>
   </trkpt>
   <trkpt lat="42.082240000000006" lon="13.41187">
    <ele>997.2900000000001</ele>
   </trkpt>
   <trkpt lat="42.08218" lon="13.41191">
    <ele>996.5800000000002</ele>
   </trkpt>
   <trkpt lat="42.08211" lon="13.41192">
    <ele>994.33</ele>
   </trkpt>
   <trkpt lat="42.082" lon="13.411880000000002">
    <ele>994.33</ele>
   </trkpt>
   <trkpt lat="42.08178" lon="13.412">
    <ele>988.6100000000001</ele>
   </trkpt>
   <trkpt lat="42.08156" lon="13.41205">
    <ele>986.0900000000001</ele>
   </trkpt>
   <trkpt lat="42.08137000000001" lon="13.4122">
    <ele>983.2600000000001</ele>
   </trkpt>
   <trkpt lat="42.08133" lon="13.412270000000001">
    <ele>983.2600000000001</ele>
   </trkpt>
   <trkpt lat="42.08133" lon="13.412460000000001">
    <ele>982.7300000000001</ele>
   </trkpt>
   <trkpt lat="42.08127" lon="13.412550000000001">
    <ele>979.3000000000001</ele>
   </trkpt>
   <trkpt lat="42.08122" lon="13.412540000000002">
    <ele>979.3000000000001</ele>
   </trkpt>
   <trkpt lat="42.08115" lon="13.41257">
    <ele>978.6400000000001</ele>
   </trkpt>
   <trkpt lat="42.081100000000006" lon="13.41261">
    <ele>977.86</ele>
   </trkpt>
   <trkpt lat="42.080940000000005" lon="13.41289">
    <ele>974.0200000000001</ele>
   </trkpt>
   <trkpt lat="42.081" lon="13.41294">
    <ele>974.0300000000001</ele>
   </trkpt>
   <trkpt lat="42.08097" lon="13.413060000000002">
    <ele>973.45</ele>
   </trkpt>
   <trkpt lat="42.08102" lon="13.413570000000002">
    <ele>970.6800000000001</ele>
   </trkpt>
   <trkpt lat="42.08095" lon="13.413960000000001">
    <ele>966.6300000000001</ele>
   </trkpt>
   <trkpt lat="42.080780000000004" lon="13.414420000000002">
    <ele>962.23</ele>
   </trkpt>
   <trkpt lat="42.080760000000005" lon="13.414620000000001">
    <ele>960.1600000000001</ele>
   </trkpt>
   <trkpt lat="42.08044" lon="13.415510000000001">
    <ele>952.0500000000001</ele>
   </trkpt>
   <trkpt lat="42.08001500056911" lon="13.41581000188334">
    <ele>940.59</ele>
   </trkpt>
   <trkpt lat="42.07959" lon="13.416110000000002">
    <ele>932.9100000000001</ele>
   </trkpt>
   <trkpt lat="42.079840000000004" lon="13.41632">
    <ele>926.63</ele>
   </trkpt>
   <trkpt lat="42.07999" lon="13.41647">
    <ele>923.5300000000001</ele>
   </trkpt>
   <trkpt lat="42.080070000000006" lon="13.416630000000001">
    <ele>919.9200000000001</ele>
   </trkpt>
   <trkpt lat="42.08035" lon="13.416960000000001">
    <ele>913.12</ele>
   </trkpt>
   <trkpt lat="42.08041" lon="13.417090000000002">
    <ele>910.24</ele>
   </trkpt>
   <trkpt lat="42.08044" lon="13.41727">
    <ele>907.5300000000001</ele>
   </trkpt>
   <trkpt lat="42.080450000000006" lon="13.417570000000001">
    <ele>902.4900000000001</ele>
   </trkpt>
   <trkpt lat="42.080420000000004" lon="13.41787">
    <ele>898.58</ele>
   </trkpt>
   <trkpt lat="42.080290000000005" lon="13.418220000000002">
    <ele>894.5900000000001</ele>
   </trkpt>
   <trkpt lat="42.08020000227013" lon="13.418945001120518">
    <ele>887.3900000000001</ele>
   </trkpt>
   <trkpt lat="42.080110000000005" lon="13.419670000000002">
    <ele>877.75</ele>
   </trkpt>
   <trkpt lat="42.08005" lon="13.41994">
    <ele>874.6700000000001</ele>
   </trkpt>
   <trkpt lat="42.07981" lon="13.42045">
    <ele>868.0600000000001</ele>
   </trkpt>
   <trkpt lat="42.0797" lon="13.42074">
    <ele>862.96</ele>
   </trkpt>
   <trkpt lat="42.07963" lon="13.421170000000002">
    <ele>857.92</ele>
   </trkpt>
   <trkpt lat="42.07963" lon="13.42143">
    <ele>857.6400000000001</ele>
   </trkpt>
   <trkpt lat="42.07954" lon="13.421710000000001">
    <ele>858.71</ele>
   </trkpt>
   <trkpt lat="42.07931000000001" lon="13.42201">
    <ele>857.89</ele>
   </trkpt>
   <trkpt lat="42.07912" lon="13.422220000000001">
    <ele>858.65</ele>
   </trkpt>
   <trkpt lat="42.079040000000006" lon="13.42242">
    <ele>859.21</ele>
   </trkpt>
   <trkpt lat="42.078880000000005" lon="13.422640000000001">
    <ele>859.45</ele>
   </trkpt>
   <trkpt lat="42.07853" lon="13.42285">
    <ele>858.01</ele>
   </trkpt>
   <trkpt lat="42.07853" lon="13.422860000000002">
    <ele>858.01</ele>
   </trkpt>
   <trkpt lat="42.07815" lon="13.42284">
    <ele>856.04</ele>
   </trkpt>
   <trkpt lat="42.077980000000004" lon="13.42279">
    <ele>855.3900000000001</ele>
   </trkpt>
   <trkpt lat="42.07734000000001" lon="13.422770000000002">
    <ele>853.09</ele>
   </trkpt>
   <trkpt lat="42.07717" lon="13.422740000000001">
    <ele>852.21</ele>
   </trkpt>
   <trkpt lat="42.07672000013516" lon="13.422740000000001">
    <ele>850.35</ele>
   </trkpt>
   <trkpt lat="42.07627" lon="13.422740000000001">
    <ele>847.65</ele>
   </trkpt>
   <trkpt lat="42.07562" lon="13.422590000000001">
    <ele>842.38</ele>
   </trkpt>
   <trkpt lat="42.075100000000006" lon="13.422270000000001">
    <ele>835.0400000000001</ele>
   </trkpt>
   <trkpt lat="42.074920000000006" lon="13.422200000000002">
    <ele>833.5400000000001</ele>
   </trkpt>
   <trkpt lat="42.074690000000004" lon="13.42224">
    <ele>831.73</ele>
   </trkpt>
   <trkpt lat="42.07459" lon="13.42224">
    <ele>831.73</ele>
   </trkpt>
   <trkpt lat="42.07448" lon="13.42219">
    <ele>831.3900000000001</ele>
   </trkpt>
   <trkpt lat="42.07481000000001" lon="13.421990000000001">
    <ele>831.91</ele>
   </trkpt>
   <trkpt lat="42.07504" lon="13.421560000000001">
    <ele>834.8000000000001</ele>
   </trkpt>
   <trkpt lat="42.075230000000005" lon="13.421380000000001">
    <ele>837.4800000000001</ele>
   </trkpt>
   <trkpt lat="42.07565" lon="13.42121">
    <ele>841.13</ele>
   </trkpt>
   <trkpt lat="42.076150000000005" lon="13.42125">
    <ele>849.0500000000001</ele>
   </trkpt>
   <trkpt lat="42.07631000000001" lon="13.421180000000001">
    <ele>851.89</ele>
   </trkpt>
   <trkpt lat="42.076530000000005" lon="13.42054">
    <ele>859.23</ele>
   </trkpt>
   <trkpt lat="42.07726" lon="13.42008">
    <ele>873.0000000000001</ele>
   </trkpt>
   <trkpt lat="42.07789000221532" lon="13.41936500710245">
    <ele>888.95</ele>
   </trkpt>
   <trkpt lat="42.078520000000005" lon="13.418650000000001">
    <ele>898.51</ele>
   </trkpt>
   <trkpt lat="42.07869" lon="13.41792">
    <ele>904.46</ele>
   </trkpt>
   <trkpt lat="42.07887500166476" lon="13.417310001614794">
    <ele>911.36</ele>
   </trkpt>
   <trkpt lat="42.079060000000005" lon="13.4167">
    <ele>922.07</ele>
   </trkpt>
   <trkpt lat="42.07959" lon="13.416110000000002">
    <ele>932.9100000000001</ele>
   </trkpt>
   <trkpt lat="42.079510000000006" lon="13.416070000000001">
    <ele>934.08</ele>
   </trkpt>
   <trkpt lat="42.079260000000005" lon="13.416070000000001">
    <ele>939.27</ele>
   </trkpt>
   <trkpt lat="42.079170000000005" lon="13.41605">
    <ele>940.85</ele>
   </trkpt>
   <trkpt lat="42.07907" lon="13.415970000000002">
    <ele>942.5600000000001</ele>
   </trkpt>
   <trkpt lat="42.07889" lon="13.415680000000002">
    <ele>945.32</ele>
   </trkpt>
   <trkpt lat="42.078900000000004" lon="13.41552">
    <ele>946.37</ele>
   </trkpt>
   <trkpt lat="42.078970000000005" lon="13.41543">
    <ele>946.91</ele>
   </trkpt>
   <trkpt lat="42.078990000000005" lon="13.415350000000002">
    <ele>947.0400000000001</ele>
   </trkpt>
   <trkpt lat="42.07894" lon="13.415270000000001">
    <ele>947.08</ele>
   </trkpt>
   <trkpt lat="42.078770000000006" lon="13.415070000000002">
    <ele>947.1800000000001</ele>
   </trkpt>
   <trkpt lat="42.078680000000006" lon="13.41492">
    <ele>947.4300000000001</ele>
   </trkpt>
   <trkpt lat="42.078430000000004" lon="13.414200000000001">
    <ele>946.3800000000001</ele>
   </trkpt>
   <trkpt lat="42.07826" lon="13.413780000000001">
    <ele>949.15</ele>
   </trkpt>
   <trkpt lat="42.07826" lon="13.413770000000001">
    <ele>949.19</ele>
   </trkpt>
   <trkpt lat="42.07836" lon="13.413620000000002">
    <ele>949.71</ele>
   </trkpt>
   <trkpt lat="42.07849" lon="13.41327">
    <ele>950.2700000000001</ele>
   </trkpt>
   <trkpt lat="42.07869" lon="13.412870000000002">
    <ele>950.79</ele>
   </trkpt>
   <trkpt lat="42.078920000000004" lon="13.41228">
    <ele>951.46</ele>
   </trkpt>
   <trkpt lat="42.079060000000005" lon="13.412110000000002">
    <ele>952.0200000000001</ele>
   </trkpt>
   <trkpt lat="42.07912" lon="13.412080000000001">
    <ele>952.0200000000001</ele>
   </trkpt>
   <trkpt lat="42.079190000000004" lon="13.4121">
    <ele>952.7500000000001</ele>
   </trkpt>
   <trkpt lat="42.07923" lon="13.41214">
    <ele>952.7500000000001</ele>
   </trkpt>
   <trkpt lat="42.07929" lon="13.412160000000002">
    <ele>952.7500000000001</ele>
   </trkpt>
   <trkpt lat="42.07963" lon="13.412210000000002">
    <ele>954.6000000000001</ele>
   </trkpt>
   <trkpt lat="42.08001" lon="13.41215">
    <ele>961.13</ele>
   </trkpt>
   <trkpt lat="42.080310000000004" lon="13.412130000000001">
    <ele>962.4100000000001</ele>
   </trkpt>
   <trkpt lat="42.080380000000005" lon="13.412090000000001">
    <ele>962.4100000000001</ele>
   </trkpt>
   <trkpt lat="42.08046" lon="13.412080000000001">
    <ele>967.74</ele>
   </trkpt>
   <trkpt lat="42.08057" lon="13.411990000000001">
    <ele>967.74</ele>
   </trkpt>
   <trkpt lat="42.0807" lon="13.411980000000002">
    <ele>969.4300000000001</ele>
   </trkpt>
   <trkpt lat="42.08044" lon="13.411130000000002">
    <ele>964.37</ele>
   </trkpt>
   <trkpt lat="42.079750000000004" lon="13.41187">
    <ele>963.83</ele>
   </trkpt>
   <trkpt lat="42.079420000000006" lon="13.41131">
    <ele>960.84</ele>
   </trkpt>
   <trkpt lat="42.07977000071489" lon="13.410925002044909">
    <ele>958.2400000000001</ele>
   </trkpt>
   <trkpt lat="42.08012" lon="13.410540000000001">
    <ele>955.23</ele>
   </trkpt>
   <trkpt lat="42.08005" lon="13.41041">
    <ele>956.8700000000001</ele>
   </trkpt>
   <trkpt lat="42.07949000000001" lon="13.409770000000002">
    <ele>969.72</ele>
   </trkpt>
   <trkpt lat="42.07943" lon="13.40981">
    <ele>969.83</ele>
   </trkpt>
   <trkpt lat="42.079170000000005" lon="13.409860000000002">
    <ele>970.35</ele>
   </trkpt>
   <trkpt lat="42.078920000000004" lon="13.410000000000002">
    <ele>971.1500000000001</ele>
   </trkpt>
   <trkpt lat="42.078610000000005" lon="13.41032">
    <ele>973.95</ele>
   </trkpt>
   <trkpt lat="42.078480000000006" lon="13.41042">
    <ele>975.59</ele>
   </trkpt>
   <trkpt lat="42.07799000000001" lon="13.410590000000001">
    <ele>981.21</ele>
   </trkpt>
   <trkpt lat="42.07739" lon="13.410910000000001">
    <ele>991.77</ele>
   </trkpt>
   <trkpt lat="42.07734000000001" lon="13.41103">
    <ele>992.3100000000001</ele>
   </trkpt>
   <trkpt lat="42.07724" lon="13.41117">
    <ele>993.1400000000001</ele>
   </trkpt>
   <trkpt lat="42.077070000000006" lon="13.411270000000002">
    <ele>993.6800000000001</ele>
   </trkpt>
   <trkpt lat="42.07697" lon="13.41131">
    <ele>993.8500000000001</ele>
   </trkpt>
   <trkpt lat="42.076660000000004" lon="13.411360000000002">
    <ele>993.6600000000001</ele>
   </trkpt>
   <trkpt lat="42.076510000000006" lon="13.412020000000002">
    <ele>986.94</ele>
   </trkpt>
   <trkpt lat="42.076440000000005" lon="13.412130000000001">
    <ele>984.89</ele>
   </trkpt>
   <trkpt lat="42.076420000000006" lon="13.4122">
    <ele>981.6800000000001</ele>
   </trkpt>
   <trkpt lat="42.07643" lon="13.41229">
    <ele>981.6800000000001</ele>
   </trkpt>
   <trkpt lat="42.076620000000005" lon="13.412600000000001">
    <ele>974.71</ele>
   </trkpt>
   <trkpt lat="42.076660000000004" lon="13.4128">
    <ele>972.28</ele>
   </trkpt>
   <trkpt lat="42.076710000000006" lon="13.4128">
    <ele>972.28</ele>
   </trkpt>
   <trkpt lat="42.07678000000001" lon="13.412840000000001">
    <ele>974.1</ele>
   </trkpt>
   <trkpt lat="42.07683" lon="13.412830000000001">
    <ele>974.1</ele>
   </trkpt>
   <trkpt lat="42.076980000000006" lon="13.412680000000002">
    <ele>975.1500000000001</ele>
   </trkpt>
   <trkpt lat="42.07708" lon="13.412700000000001">
    <ele>975.52</ele>
   </trkpt>
   <trkpt lat="42.07721" lon="13.41267">
    <ele>975.6000000000001</ele>
   </trkpt>
   <trkpt lat="42.077290000000005" lon="13.412630000000002">
    <ele>975.6500000000001</ele>
   </trkpt>
   <trkpt lat="42.077400000000004" lon="13.41252">
    <ele>975.62</ele>
   </trkpt>
   <trkpt lat="42.077470000000005" lon="13.412370000000001">
    <ele>975.5400000000001</ele>
   </trkpt>
   <trkpt lat="42.07755" lon="13.412070000000002">
    <ele>975.1400000000001</ele>
   </trkpt>
   <trkpt lat="42.077630000000006" lon="13.41201">
    <ele>974.94</ele>
   </trkpt>
   <trkpt lat="42.0777" lon="13.41187">
    <ele>974.7800000000001</ele>
   </trkpt>
   <trkpt lat="42.0778" lon="13.41178">
    <ele>973.6600000000001</ele>
   </trkpt>
   <trkpt lat="42.0777" lon="13.41187">
    <ele>974.6800000000001</ele>
   </trkpt>
   <trkpt lat="42.077630000000006" lon="13.41201">
    <ele>974.94</ele>
   </trkpt>
   <trkpt lat="42.07755" lon="13.412070000000002">
    <ele>975.1400000000001</ele>
   </trkpt>
   <trkpt lat="42.077470000000005" lon="13.412370000000001">
    <ele>975.5400000000001</ele>
   </trkpt>
   <trkpt lat="42.077400000000004" lon="13.41252">
    <ele>975.62</ele>
   </trkpt>
   <trkpt lat="42.077290000000005" lon="13.412630000000002">
    <ele>975.6500000000001</ele>
   </trkpt>
   <trkpt lat="42.07721" lon="13.41267">
    <ele>975.6000000000001</ele>
   </trkpt>
   <trkpt lat="42.07708" lon="13.412700000000001">
    <ele>975.52</ele>
   </trkpt>
   <trkpt lat="42.076980000000006" lon="13.412680000000002">
    <ele>975.1500000000001</ele>
   </trkpt>
   <trkpt lat="42.07683" lon="13.412830000000001">
    <ele>974.1</ele>
   </trkpt>
   <trkpt lat="42.07678000000001" lon="13.412840000000001">
    <ele>974.1</ele>
   </trkpt>
   <trkpt lat="42.076710000000006" lon="13.4128">
    <ele>972.28</ele>
   </trkpt>
   <trkpt lat="42.076660000000004" lon="13.4128">
    <ele>972.28</ele>
   </trkpt>
   <trkpt lat="42.07667" lon="13.41289">
    <ele>971.8700000000001</ele>
   </trkpt>
   <trkpt lat="42.07674" lon="13.413">
    <ele>970.95</ele>
   </trkpt>
   <trkpt lat="42.07706" lon="13.41323">
    <ele>966.45</ele>
   </trkpt>
   <trkpt lat="42.07717" lon="13.413330000000002">
    <ele>964.2900000000001</ele>
   </trkpt>
   <trkpt lat="42.07721" lon="13.413430000000002">
    <ele>962.6800000000001</ele>
   </trkpt>
   <trkpt lat="42.07726" lon="13.413660000000002">
    <ele>959.35</ele>
   </trkpt>
   <trkpt lat="42.077180000000006" lon="13.414000000000001">
    <ele>955.52</ele>
   </trkpt>
   <trkpt lat="42.077130000000004" lon="13.41408">
    <ele>955.01</ele>
   </trkpt>
   <trkpt lat="42.076840000000004" lon="13.414100000000001">
    <ele>952.3100000000001</ele>
   </trkpt>
   <trkpt lat="42.076660000000004" lon="13.414240000000001">
    <ele>949.58</ele>
   </trkpt>
   <trkpt lat="42.076660000000004" lon="13.414250000000001">
    <ele>949.5000000000001</ele>
   </trkpt>
   <trkpt lat="42.07652" lon="13.414140000000002">
    <ele>946.4300000000001</ele>
   </trkpt>
   <trkpt lat="42.07640000000001" lon="13.413990000000002">
    <ele>943.5500000000001</ele>
   </trkpt>
   <trkpt lat="42.07609" lon="13.413780000000001">
    <ele>937.73</ele>
   </trkpt>
   <trkpt lat="42.075410000000005" lon="13.413620000000002">
    <ele>931.8400000000001</ele>
   </trkpt>
   <trkpt lat="42.07493" lon="13.41356">
    <ele>928.8600000000001</ele>
   </trkpt>
   <trkpt lat="42.07441" lon="13.41355">
    <ele>925.9900000000001</ele>
   </trkpt>
   <trkpt lat="42.07394000001269" lon="13.413444999214596">
    <ele>922.3500000000001</ele>
   </trkpt>
   <trkpt lat="42.07347" lon="13.413340000000002">
    <ele>919.8600000000001</ele>
   </trkpt>
   <trkpt lat="42.07309" lon="13.413340000000002">
    <ele>917.4300000000001</ele>
   </trkpt>
   <trkpt lat="42.07302000000001" lon="13.41337">
    <ele>916.7</ele>
   </trkpt>
   <trkpt lat="42.07298" lon="13.413450000000001">
    <ele>916.7</ele>
   </trkpt>
   <trkpt lat="42.07291" lon="13.413760000000002">
    <ele>914.07</ele>
   </trkpt>
   <trkpt lat="42.0728" lon="13.413860000000001">
    <ele>912.5500000000001</ele>
   </trkpt>
   <trkpt lat="42.072590000000005" lon="13.413810000000002">
    <ele>911.24</ele>
   </trkpt>
   <trkpt lat="42.0724" lon="13.413680000000001">
    <ele>910.2</ele>
   </trkpt>
   <trkpt lat="42.07182" lon="13.41337">
    <ele>909.3500000000001</ele>
   </trkpt>
   <trkpt lat="42.07151" lon="13.413110000000001">
    <ele>908.39</ele>
   </trkpt>
   <trkpt lat="42.07123" lon="13.412910000000002">
    <ele>907.49</ele>
   </trkpt>
   <trkpt lat="42.07105000000001" lon="13.412700000000001">
    <ele>906.57</ele>
   </trkpt>
   <trkpt lat="42.07095" lon="13.412630000000002">
    <ele>906.2</ele>
   </trkpt>
   <trkpt lat="42.07079" lon="13.412560000000001">
    <ele>905.21</ele>
   </trkpt>
   <trkpt lat="42.07074" lon="13.412420000000001">
    <ele>903.9100000000001</ele>
   </trkpt>
   <trkpt lat="42.070750000000004" lon="13.41225">
    <ele>903.09</ele>
   </trkpt>
   <trkpt lat="42.070840000000004" lon="13.412030000000001">
    <ele>901.17</ele>
   </trkpt>
   <trkpt lat="42.070800000000006" lon="13.41196">
    <ele>899.6</ele>
   </trkpt>
   <trkpt lat="42.07072" lon="13.412020000000002">
    <ele>899.17</ele>
   </trkpt>
   <trkpt lat="42.07054" lon="13.41225">
    <ele>897.85</ele>
   </trkpt>
   <trkpt lat="42.070420000000006" lon="13.412270000000001">
    <ele>896.84</ele>
   </trkpt>
   <trkpt lat="42.070150000000005" lon="13.41224">
    <ele>893.75</ele>
   </trkpt>
   <trkpt lat="42.06996" lon="13.412170000000001">
    <ele>891.5200000000001</ele>
   </trkpt>
   <trkpt lat="42.069610000000004" lon="13.41215">
    <ele>886.4200000000001</ele>
   </trkpt>
   <trkpt lat="42.069390000000006" lon="13.412070000000002">
    <ele>885.09</ele>
   </trkpt>
   <trkpt lat="42.069160000000004" lon="13.412030000000001">
    <ele>882.84</ele>
   </trkpt>
   <trkpt lat="42.06962" lon="13.412920000000002">
    <ele>880.2200000000001</ele>
   </trkpt>
   <trkpt lat="42.069680000000005" lon="13.412920000000002">
    <ele>881.5100000000001</ele>
   </trkpt>
   <trkpt lat="42.06974" lon="13.41295">
    <ele>882.14</ele>
   </trkpt>
   <trkpt lat="42.06993000000001" lon="13.413210000000001">
    <ele>885.69</ele>
   </trkpt>
   <trkpt lat="42.07" lon="13.413260000000001">
    <ele>885.69</ele>
   </trkpt>
   <trkpt lat="42.07047" lon="13.413400000000001">
    <ele>889.0300000000001</ele>
   </trkpt>
   <trkpt lat="42.07104" lon="13.41341">
    <ele>895.2</ele>
   </trkpt>
   <trkpt lat="42.07128" lon="13.413450000000001">
    <ele>896.7600000000001</ele>
   </trkpt>
   <trkpt lat="42.07162" lon="13.413860000000001">
    <ele>897.1600000000001</ele>
   </trkpt>
   <trkpt lat="42.071830000000006" lon="13.413910000000001">
    <ele>899.17</ele>
   </trkpt>
   <trkpt lat="42.07197" lon="13.413990000000002">
    <ele>900.75</ele>
   </trkpt>
   <trkpt lat="42.07246000000001" lon="13.41412">
    <ele>907.12</ele>
   </trkpt>
   <trkpt lat="42.072590000000005" lon="13.41431">
    <ele>908.07</ele>
   </trkpt>
   <trkpt lat="42.072660000000006" lon="13.414330000000001">
    <ele>909.83</ele>
   </trkpt>
   <trkpt lat="42.072790000000005" lon="13.414290000000001">
    <ele>910.75</ele>
   </trkpt>
   <trkpt lat="42.07293000000001" lon="13.414180000000002">
    <ele>913.33</ele>
   </trkpt>
   <trkpt lat="42.07294" lon="13.414090000000002">
    <ele>913.33</ele>
   </trkpt>
   <trkpt lat="42.07368" lon="13.41411">
    <ele>911.8900000000001</ele>
   </trkpt>
   <trkpt lat="42.07379" lon="13.414230000000002">
    <ele>911.2</ele>
   </trkpt>
   <trkpt lat="42.07408" lon="13.414750000000002">
    <ele>904.3000000000001</ele>
   </trkpt>
   <trkpt lat="42.074090000000005" lon="13.41477">
    <ele>904.3000000000001</ele>
   </trkpt>
   <trkpt lat="42.0741" lon="13.414890000000002">
    <ele>902.9200000000001</ele>
   </trkpt>
   <trkpt lat="42.074070000000006" lon="13.41515">
    <ele>899.29</ele>
   </trkpt>
   <trkpt lat="42.074070000000006" lon="13.415500000000002">
    <ele>893.6</ele>
   </trkpt>
   <trkpt lat="42.07399" lon="13.415650000000001">
    <ele>890.26</ele>
   </trkpt>
   <trkpt lat="42.073890000000006" lon="13.415690000000001">
    <ele>888.5</ele>
   </trkpt>
   <trkpt lat="42.07381" lon="13.4158">
    <ele>886.6400000000001</ele>
   </trkpt>
   <trkpt lat="42.073800000000006" lon="13.41623">
    <ele>880.3400000000001</ele>
   </trkpt>
   <trkpt lat="42.073890000000006" lon="13.416360000000001">
    <ele>877.77</ele>
   </trkpt>
   <trkpt lat="42.073930000000004" lon="13.41647">
    <ele>876.77</ele>
   </trkpt>
   <trkpt lat="42.0741" lon="13.416500000000001">
    <ele>874.99</ele>
   </trkpt>
   <trkpt lat="42.07414000000001" lon="13.416570000000002">
    <ele>874.99</ele>
   </trkpt>
   <trkpt lat="42.074110000000005" lon="13.41675">
    <ele>871.74</ele>
   </trkpt>
   <trkpt lat="42.074110000000005" lon="13.41702">
    <ele>869.7900000000001</ele>
   </trkpt>
   <trkpt lat="42.07408" lon="13.417140000000002">
    <ele>869.3900000000001</ele>
   </trkpt>
   <trkpt lat="42.074000000000005" lon="13.41721">
    <ele>868.33</ele>
   </trkpt>
   <trkpt lat="42.073910000000005" lon="13.417380000000001">
    <ele>867.04</ele>
   </trkpt>
   <trkpt lat="42.07394" lon="13.417520000000001">
    <ele>865.23</ele>
   </trkpt>
   <trkpt lat="42.07405000000001" lon="13.417470000000002">
    <ele>863.7</ele>
   </trkpt>
   <trkpt lat="42.074200000000005" lon="13.417370000000002">
    <ele>859.83</ele>
   </trkpt>
   <trkpt lat="42.07435" lon="13.41736">
    <ele>856.4900000000001</ele>
   </trkpt>
   <trkpt lat="42.07442" lon="13.417510000000002">
    <ele>853.71</ele>
   </trkpt>
   <trkpt lat="42.07459" lon="13.41802">
    <ele>848.8000000000001</ele>
   </trkpt>
   <trkpt lat="42.074690000000004" lon="13.418120000000002">
    <ele>847.58</ele>
   </trkpt>
   <trkpt lat="42.074940000000005" lon="13.41815">
    <ele>846.1700000000001</ele>
   </trkpt>
   <trkpt lat="42.07502" lon="13.41829">
    <ele>845.6800000000001</ele>
   </trkpt>
   <trkpt lat="42.075070000000004" lon="13.418520000000001">
    <ele>845.16</ele>
   </trkpt>
   <trkpt lat="42.075120000000005" lon="13.418640000000002">
    <ele>844.8100000000001</ele>
   </trkpt>
   <trkpt lat="42.07509" lon="13.418740000000001">
    <ele>843.8000000000001</ele>
   </trkpt>
   <trkpt lat="42.075050000000005" lon="13.418780000000002">
    <ele>843.35</ele>
   </trkpt>
   <trkpt lat="42.074780000000004" lon="13.418890000000001">
    <ele>841.2900000000001</ele>
   </trkpt>
   <trkpt lat="42.074670000000005" lon="13.418970000000002">
    <ele>840.5600000000001</ele>
   </trkpt>
   <trkpt lat="42.07462" lon="13.419060000000002">
    <ele>840.2400000000001</ele>
   </trkpt>
   <trkpt lat="42.07459" lon="13.419260000000001">
    <ele>839.86</ele>
   </trkpt>
   <trkpt lat="42.07461000000001" lon="13.4197">
    <ele>835.55</ele>
   </trkpt>
   <trkpt lat="42.0745" lon="13.41971">
    <ele>835.23</ele>
   </trkpt>
   <trkpt lat="42.07432" lon="13.419580000000002">
    <ele>834.85</ele>
   </trkpt>
   <trkpt lat="42.074180000000005" lon="13.41938">
    <ele>835.4</ele>
   </trkpt>
   <trkpt lat="42.074070000000006" lon="13.41933">
    <ele>835.1700000000001</ele>
   </trkpt>
   <trkpt lat="42.073570000000004" lon="13.419620000000002">
    <ele>828.5500000000001</ele>
   </trkpt>
   <trkpt lat="42.07283" lon="13.42008">
    <ele>823.1700000000001</ele>
   </trkpt>
   <trkpt lat="42.07256" lon="13.420230000000002">
    <ele>822.6800000000001</ele>
   </trkpt>
   <trkpt lat="42.072430000000004" lon="13.42027">
    <ele>822.37</ele>
   </trkpt>
   <trkpt lat="42.07222" lon="13.419680000000001">
    <ele>821.44</ele>
   </trkpt>
   <trkpt lat="42.072010000000006" lon="13.41938">
    <ele>821.37</ele>
   </trkpt>
   <trkpt lat="42.07168" lon="13.419110000000002">
    <ele>821.21</ele>
   </trkpt>
   <trkpt lat="42.07137" lon="13.418830000000002">
    <ele>822.2900000000001</ele>
   </trkpt>
   <trkpt lat="42.07126" lon="13.418820000000002">
    <ele>822.15</ele>
   </trkpt>
   <trkpt lat="42.071000000000005" lon="13.419">
    <ele>819.7200000000001</ele>
   </trkpt>
   <trkpt lat="42.07052" lon="13.418730000000002">
    <ele>817.52</ele>
   </trkpt>
   <trkpt lat="42.07034" lon="13.418750000000001">
    <ele>815.94</ele>
   </trkpt>
   <trkpt lat="42.07016" lon="13.418830000000002">
    <ele>814.4800000000001</ele>
   </trkpt>
   <trkpt lat="42.07002000000001" lon="13.41877">
    <ele>813.61</ele>
   </trkpt>
   <trkpt lat="42.070100000000004" lon="13.418310000000002">
    <ele>817.36</ele>
   </trkpt>
   <trkpt lat="42.070190000000004" lon="13.417980000000002">
    <ele>821.97</ele>
   </trkpt>
   <trkpt lat="42.07018" lon="13.417850000000001">
    <ele>823.9000000000001</ele>
   </trkpt>
   <trkpt lat="42.070040000000006" lon="13.41774">
    <ele>823.9000000000001</ele>
   </trkpt>
   <trkpt lat="42.06992" lon="13.417610000000002">
    <ele>824.8000000000001</ele>
   </trkpt>
   <trkpt lat="42.06969" lon="13.41726">
    <ele>828.76</ele>
   </trkpt>
   <trkpt lat="42.06971" lon="13.417110000000001">
    <ele>831.0400000000001</ele>
   </trkpt>
   <trkpt lat="42.06996" lon="13.41661">
    <ele>843.4200000000001</ele>
   </trkpt>
   <trkpt lat="42.07011000000001" lon="13.41652">
    <ele>847.16</ele>
   </trkpt>
   <trkpt lat="42.07011000000001" lon="13.416290000000002">
    <ele>851.1700000000001</ele>
   </trkpt>
   <trkpt lat="42.06956" lon="13.415870000000002">
    <ele>849.3600000000001</ele>
   </trkpt>
   <trkpt lat="42.069430000000004" lon="13.415750000000001">
    <ele>849.0900000000001</ele>
   </trkpt>
   <trkpt lat="42.069320000000005" lon="13.41571">
    <ele>847.44</ele>
   </trkpt>
   <trkpt lat="42.069430000000004" lon="13.41566">
    <ele>850.23</ele>
   </trkpt>
   <trkpt lat="42.069700000000005" lon="13.415590000000002">
    <ele>855.8500000000001</ele>
   </trkpt>
   <trkpt lat="42.070170000000005" lon="13.41557">
    <ele>863.04</ele>
   </trkpt>
   <trkpt lat="42.07029" lon="13.41558">
    <ele>864.48</ele>
   </trkpt>
   <trkpt lat="42.070530000000005" lon="13.415820000000002">
    <ele>863.1</ele>
   </trkpt>
   <trkpt lat="42.07061" lon="13.41595">
    <ele>862.1700000000001</ele>
   </trkpt>
   <trkpt lat="42.07072" lon="13.415960000000002">
    <ele>863.26</ele>
   </trkpt>
   <trkpt lat="42.07092" lon="13.41595">
    <ele>866.1200000000001</ele>
   </trkpt>
   <trkpt lat="42.07123" lon="13.41591">
    <ele>871.4600000000002</ele>
   </trkpt>
   <trkpt lat="42.07132" lon="13.415780000000002">
    <ele>874.8</ele>
   </trkpt>
   <trkpt lat="42.07124" lon="13.415680000000002">
    <ele>866.8800000000001</ele>
   </trkpt>
   <trkpt lat="42.07096000000001" lon="13.41544">
    <ele>866.09</ele>
   </trkpt>
   <trkpt lat="42.070600000000006" lon="13.415270000000001">
    <ele>863.2700000000001</ele>
   </trkpt>
   <trkpt lat="42.07040000000001" lon="13.415140000000001">
    <ele>861.7900000000001</ele>
   </trkpt>
   <trkpt lat="42.07018" lon="13.415080000000001">
    <ele>860.0000000000001</ele>
   </trkpt>
   <trkpt lat="42.06991" lon="13.415160000000002">
    <ele>854.8000000000001</ele>
   </trkpt>
   <trkpt lat="42.069500000141616" lon="13.415425001817084">
    <ele>850.3000000000001</ele>
   </trkpt>
   <trkpt lat="42.06909" lon="13.415690000000001">
    <ele>847.0900000000001</ele>
   </trkpt>
   <trkpt lat="42.069010000000006" lon="13.415730000000002">
    <ele>846.64</ele>
   </trkpt>
   <trkpt lat="42.06888" lon="13.415750000000001">
    <ele>845.8000000000001</ele>
   </trkpt>
   <trkpt lat="42.06907" lon="13.415550000000001">
    <ele>850.83</ele>
   </trkpt>
   <trkpt lat="42.069140000000004" lon="13.415400000000002">
    <ele>852.44</ele>
   </trkpt>
   <trkpt lat="42.06927" lon="13.41524">
    <ele>856.07</ele>
   </trkpt>
   <trkpt lat="42.069790000000005" lon="13.414710000000001">
    <ele>863.77</ele>
   </trkpt>
   <trkpt lat="42.06985" lon="13.414620000000001">
    <ele>864.65</ele>
   </trkpt>
   <trkpt lat="42.0698" lon="13.414470000000001">
    <ele>864.69</ele>
   </trkpt>
   <trkpt lat="42.069250000000004" lon="13.413520000000002">
    <ele>866.6</ele>
   </trkpt>
   <trkpt lat="42.06906" lon="13.413100000000002">
    <ele>869.58</ele>
   </trkpt>
   <trkpt lat="42.06891" lon="13.412690000000001">
    <ele>873.2900000000001</ele>
   </trkpt>
   <trkpt lat="42.068850000000005" lon="13.41243">
    <ele>873.2900000000001</ele>
   </trkpt>
   <trkpt lat="42.068670000000004" lon="13.41205">
    <ele>876.7600000000001</ele>
   </trkpt>
   <trkpt lat="42.06864" lon="13.41191">
    <ele>877.11</ele>
   </trkpt>
   <trkpt lat="42.068690000000004" lon="13.411800000000001">
    <ele>876.0000000000001</ele>
   </trkpt>
   <trkpt lat="42.068760000000005" lon="13.41168">
    <ele>874.1500000000001</ele>
   </trkpt>
   <trkpt lat="42.06906" lon="13.411380000000001">
    <ele>870.99</ele>
   </trkpt>
   <trkpt lat="42.06942" lon="13.410660000000002">
    <ele>865.08</ele>
   </trkpt>
   <trkpt lat="42.068960000000004" lon="13.410200000000001">
    <ele>849.0500000000001</ele>
   </trkpt>
   <trkpt lat="42.068670000000004" lon="13.41023">
    <ele>843.23</ele>
   </trkpt>
   <trkpt lat="42.06851" lon="13.409960000000002">
    <ele>831.28</ele>
   </trkpt>
   <trkpt lat="42.068200000000004" lon="13.410290000000002">
    <ele>829.3300000000002</ele>
   </trkpt>
   <trkpt lat="42.06801" lon="13.410430000000002">
    <ele>829.28</ele>
   </trkpt>
   <trkpt lat="42.06767000000001" lon="13.41079">
    <ele>831.13</ele>
   </trkpt>
   <trkpt lat="42.0673" lon="13.41107">
    <ele>831.11</ele>
   </trkpt>
   <trkpt lat="42.06712" lon="13.411100000000001">
    <ele>830.34</ele>
   </trkpt>
   <trkpt lat="42.067060000000005" lon="13.411180000000002">
    <ele>830.23</ele>
   </trkpt>
   <trkpt lat="42.06702000000001" lon="13.411360000000002">
    <ele>830.1500000000001</ele>
   </trkpt>
   <trkpt lat="42.06691" lon="13.41145">
    <ele>829.83</ele>
   </trkpt>
   <trkpt lat="42.06674" lon="13.411760000000001">
    <ele>828.9200000000001</ele>
   </trkpt>
   <trkpt lat="42.066720000000004" lon="13.412320000000001">
    <ele>828.57</ele>
   </trkpt>
   <trkpt lat="42.06656" lon="13.412500000000001">
    <ele>825.62</ele>
   </trkpt>
   <trkpt lat="42.06606" lon="13.41281">
    <ele>812.5300000000001</ele>
   </trkpt>
   <trkpt lat="42.06584" lon="13.413010000000002">
    <ele>805.9000000000001</ele>
   </trkpt>
   <trkpt lat="42.065650000000005" lon="13.413210000000001">
    <ele>801.91</ele>
   </trkpt>
   <trkpt lat="42.06519" lon="13.41342">
    <ele>791.66</ele>
   </trkpt>
   <trkpt lat="42.06495" lon="13.413590000000001">
    <ele>786.63</ele>
   </trkpt>
   <trkpt lat="42.06458000000001" lon="13.413810000000002">
    <ele>782.08</ele>
   </trkpt>
   <trkpt lat="42.06409" lon="13.41421">
    <ele>782.3500000000001</ele>
   </trkpt>
   <trkpt lat="42.064" lon="13.413530000000002">
    <ele>779.95</ele>
   </trkpt>
   <trkpt lat="42.06374" lon="13.412680000000002">
    <ele>777.33</ele>
   </trkpt>
   <trkpt lat="42.06326000000001" lon="13.413190000000002">
    <ele>777.8600000000001</ele>
   </trkpt>
   <trkpt lat="42.06309" lon="13.413520000000002">
    <ele>777.96</ele>
   </trkpt>
   <trkpt lat="42.06302" lon="13.41328">
    <ele>776.93</ele>
   </trkpt>
  </trkseg>
 </trk>
</gpx>
