<?xml version="1.0" encoding="UTF-8"?>
<gpx creator="StravaGPX" xmlns:xsi="http://www.w3.org/2001/XMLSchema-instance" xsi:schemaLocation="http://www.topografix.com/GPX/1/1 http://www.topografix.com/GPX/1/1/gpx.xsd" version="1.1" xmlns="http://www.topografix.com/GPX/1/1">
 <metadata>
  <name>Alba dei Marsi 2024 - 12 Km</name>
  <desc>Alba dei Marsi 2024 - 12 KM</desc>
  <author>
   <name>Alessandro Felli</name>
   <link href="https://www.strava.com/athletes/18805384"/>
  </author>
  <copyright author="OpenStreetMap contributors">
   <year>2020</year>
   <license>https://www.openstreetmap.org/copyright</license>
  </copyright>
  <link href="https://www.strava.com/routes/3091361276566786014"/>
 </metadata>
 <trk>
  <name>Alba dei Marsi 2024 - 12 Km</name>
  <desc>Alba dei Marsi 2024 - 12 KM</desc>
  <link href="https://www.strava.com/routes/3091361276566786014"/>
  <type>cycling</type>
  <trkseg>
   <trkpt lat="42.06318" lon="13.413330000000002">
    <ele>777.44</ele>
   </trkpt>
   <trkpt lat="42.06326000000001" lon="13.413190000000002">
    <ele>777.4100000000001</ele>
   </trkpt>
   <trkpt lat="42.06374" lon="13.412680000000002">
    <ele>776.7600000000001</ele>
   </trkpt>
   <trkpt lat="42.064060000000005" lon="13.412220000000001">
    <ele>775.5400000000001</ele>
   </trkpt>
   <trkpt lat="42.06409" lon="13.4121">
    <ele>775.57</ele>
   </trkpt>
   <trkpt lat="42.064460000000004" lon="13.411760000000001">
    <ele>776.7</ele>
   </trkpt>
   <trkpt lat="42.06487000212293" lon="13.411060004527135">
    <ele>779.19</ele>
   </trkpt>
   <trkpt lat="42.06528" lon="13.41036">
    <ele>780.69</ele>
   </trkpt>
   <trkpt lat="42.065710001585586" lon="13.409785003693226">
    <ele>781.7400000000001</ele>
   </trkpt>
   <trkpt lat="42.066140000000004" lon="13.409210000000002">
    <ele>782.82</ele>
   </trkpt>
   <trkpt lat="42.06642500142258" lon="13.408640002534169">
    <ele>783.8000000000001</ele>
   </trkpt>
   <trkpt lat="42.06671" lon="13.40807">
    <ele>785.66</ele>
   </trkpt>
   <trkpt lat="42.066930000000006" lon="13.40826">
    <ele>787.87</ele>
   </trkpt>
   <trkpt lat="42.06701" lon="13.408310000000002">
    <ele>789.21</ele>
   </trkpt>
   <trkpt lat="42.067080000000004" lon="13.4083">
    <ele>789.21</ele>
   </trkpt>
   <trkpt lat="42.06712" lon="13.408230000000001">
    <ele>789.21</ele>
   </trkpt>
   <trkpt lat="42.06721" lon="13.407800000000002">
    <ele>793.7900000000001</ele>
   </trkpt>
   <trkpt lat="42.067370000000004" lon="13.40704">
    <ele>801.6800000000001</ele>
   </trkpt>
   <trkpt lat="42.06761" lon="13.40637">
    <ele>806.0</ele>
   </trkpt>
   <trkpt lat="42.067750000000004" lon="13.40609">
    <ele>808.8700000000001</ele>
   </trkpt>
   <trkpt lat="42.06781" lon="13.406060000000002">
    <ele>809.19</ele>
   </trkpt>
   <trkpt lat="42.067870000000006" lon="13.406080000000001">
    <ele>810.44</ele>
   </trkpt>
   <trkpt lat="42.06797" lon="13.40633">
    <ele>813.7800000000001</ele>
   </trkpt>
   <trkpt lat="42.068090000000005" lon="13.406200000000002">
    <ele>814.64</ele>
   </trkpt>
   <trkpt lat="42.06815" lon="13.406220000000001">
    <ele>815.09</ele>
   </trkpt>
   <trkpt lat="42.068490000000004" lon="13.40567">
    <ele>812.57</ele>
   </trkpt>
   <trkpt lat="42.068540000000006" lon="13.40568">
    <ele>812.57</ele>
   </trkpt>
   <trkpt lat="42.068900000000006" lon="13.40553">
    <ele>808.0500000000001</ele>
   </trkpt>
   <trkpt lat="42.06974" lon="13.405410000000002">
    <ele>810.3100000000001</ele>
   </trkpt>
   <trkpt lat="42.06991" lon="13.405460000000001">
    <ele>811.1700000000001</ele>
   </trkpt>
   <trkpt lat="42.07007" lon="13.40544">
    <ele>811.57</ele>
   </trkpt>
   <trkpt lat="42.070750000000004" lon="13.405310000000002">
    <ele>814.13</ele>
   </trkpt>
   <trkpt lat="42.070980000000006" lon="13.4052">
    <ele>815.46</ele>
   </trkpt>
   <trkpt lat="42.071160000000006" lon="13.405170000000002">
    <ele>816.1700000000001</ele>
   </trkpt>
   <trkpt lat="42.071180000000005" lon="13.404890000000002">
    <ele>813.7800000000001</ele>
   </trkpt>
   <trkpt lat="42.07139" lon="13.40455">
    <ele>809.36</ele>
   </trkpt>
   <trkpt lat="42.071470000000005" lon="13.40432">
    <ele>807.1700000000001</ele>
   </trkpt>
   <trkpt lat="42.07146" lon="13.404110000000001">
    <ele>804.1800000000001</ele>
   </trkpt>
   <trkpt lat="42.071360000000006" lon="13.40385">
    <ele>798.6200000000001</ele>
   </trkpt>
   <trkpt lat="42.071310000000004" lon="13.40365">
    <ele>796.84</ele>
   </trkpt>
   <trkpt lat="42.071340000000006" lon="13.403480000000002">
    <ele>794.6</ele>
   </trkpt>
   <trkpt lat="42.07148" lon="13.40332">
    <ele>792.59</ele>
   </trkpt>
   <trkpt lat="42.07159" lon="13.40323">
    <ele>791.49</ele>
   </trkpt>
   <trkpt lat="42.0718" lon="13.403110000000002">
    <ele>789.75</ele>
   </trkpt>
   <trkpt lat="42.07197" lon="13.402980000000001">
    <ele>787.69</ele>
   </trkpt>
   <trkpt lat="42.072140000000005" lon="13.402890000000001">
    <ele>786.1300000000001</ele>
   </trkpt>
   <trkpt lat="42.07245" lon="13.402790000000001">
    <ele>785.57</ele>
   </trkpt>
   <trkpt lat="42.07264000000001" lon="13.40257">
    <ele>783.58</ele>
   </trkpt>
   <trkpt lat="42.07256" lon="13.401660000000001">
    <ele>766.4399999999999</ele>
   </trkpt>
   <trkpt lat="42.07339" lon="13.40149">
    <ele>769.57</ele>
   </trkpt>
   <trkpt lat="42.07387000000001" lon="13.401330000000002">
    <ele>771.51</ele>
   </trkpt>
   <trkpt lat="42.07388" lon="13.401320000000002">
    <ele>771.51</ele>
   </trkpt>
   <trkpt lat="42.073910000000005" lon="13.401280000000002">
    <ele>771.51</ele>
   </trkpt>
   <trkpt lat="42.07387000000001" lon="13.400870000000001">
    <ele>772.39</ele>
   </trkpt>
   <trkpt lat="42.073980000000006" lon="13.400640000000001">
    <ele>773.8600000000001</ele>
   </trkpt>
   <trkpt lat="42.074040000000004" lon="13.400570000000002">
    <ele>774.8900000000001</ele>
   </trkpt>
   <trkpt lat="42.074090000000005" lon="13.40041">
    <ele>776.07</ele>
   </trkpt>
   <trkpt lat="42.07406" lon="13.399600000000001">
    <ele>784.8100000000001</ele>
   </trkpt>
   <trkpt lat="42.07412" lon="13.39939">
    <ele>787.4200000000001</ele>
   </trkpt>
   <trkpt lat="42.07387000000001" lon="13.3984">
    <ele>788.87</ele>
   </trkpt>
   <trkpt lat="42.07388" lon="13.39835">
    <ele>788.87</ele>
   </trkpt>
   <trkpt lat="42.074070000000006" lon="13.39816">
    <ele>789.44</ele>
   </trkpt>
   <trkpt lat="42.07446" lon="13.39783">
    <ele>787.7400000000001</ele>
   </trkpt>
   <trkpt lat="42.074760000000005" lon="13.39769">
    <ele>786.83</ele>
   </trkpt>
   <trkpt lat="42.07495" lon="13.397660000000002">
    <ele>788.2300000000001</ele>
   </trkpt>
   <trkpt lat="42.07531" lon="13.39741">
    <ele>787.48</ele>
   </trkpt>
   <trkpt lat="42.07549" lon="13.397350000000001">
    <ele>788.3800000000001</ele>
   </trkpt>
   <trkpt lat="42.07567" lon="13.39732">
    <ele>791.2500000000001</ele>
   </trkpt>
   <trkpt lat="42.07578" lon="13.397260000000001">
    <ele>792.2</ele>
   </trkpt>
   <trkpt lat="42.075700000000005" lon="13.397110000000001">
    <ele>789.19</ele>
   </trkpt>
   <trkpt lat="42.07585" lon="13.3969">
    <ele>790.75</ele>
   </trkpt>
   <trkpt lat="42.076010000000004" lon="13.396740000000001">
    <ele>795.21</ele>
   </trkpt>
   <trkpt lat="42.07621" lon="13.396320000000001">
    <ele>797.0500000000001</ele>
   </trkpt>
   <trkpt lat="42.07627" lon="13.396080000000001">
    <ele>797.3100000000001</ele>
   </trkpt>
   <trkpt lat="42.076750000000004" lon="13.395650000000002">
    <ele>804.0500000000001</ele>
   </trkpt>
   <trkpt lat="42.07685" lon="13.39545">
    <ele>804.2600000000001</ele>
   </trkpt>
   <trkpt lat="42.07694" lon="13.3952">
    <ele>804.5500000000001</ele>
   </trkpt>
   <trkpt lat="42.07705000000001" lon="13.39498">
    <ele>806.45</ele>
   </trkpt>
   <trkpt lat="42.077200000000005" lon="13.39483">
    <ele>808.98</ele>
   </trkpt>
   <trkpt lat="42.077070000000006" lon="13.394630000000001">
    <ele>805.9200000000001</ele>
   </trkpt>
   <trkpt lat="42.07701" lon="13.394400000000001">
    <ele>805.42</ele>
   </trkpt>
   <trkpt lat="42.076910000000005" lon="13.393930000000001">
    <ele>803.94</ele>
   </trkpt>
   <trkpt lat="42.07678000000001" lon="13.393770000000002">
    <ele>801.08</ele>
   </trkpt>
   <trkpt lat="42.0767" lon="13.39352">
    <ele>798.7700000000001</ele>
   </trkpt>
   <trkpt lat="42.076730000000005" lon="13.393260000000001">
    <ele>797.24</ele>
   </trkpt>
   <trkpt lat="42.07677" lon="13.393030000000001">
    <ele>795.7</ele>
   </trkpt>
   <trkpt lat="42.07685" lon="13.392800000000001">
    <ele>794.5300000000001</ele>
   </trkpt>
   <trkpt lat="42.07697" lon="13.39262">
    <ele>794.71</ele>
   </trkpt>
   <trkpt lat="42.07706" lon="13.392520000000001">
    <ele>795.6500000000001</ele>
   </trkpt>
   <trkpt lat="42.077200000000005" lon="13.392690000000002">
    <ele>800.25</ele>
   </trkpt>
   <trkpt lat="42.0773" lon="13.392750000000001">
    <ele>802.45</ele>
   </trkpt>
   <trkpt lat="42.077450000000006" lon="13.392900000000001">
    <ele>806.2300000000001</ele>
   </trkpt>
   <trkpt lat="42.07762" lon="13.393030000000001">
    <ele>810.95</ele>
   </trkpt>
   <trkpt lat="42.077740000000006" lon="13.39323">
    <ele>814.6600000000001</ele>
   </trkpt>
   <trkpt lat="42.078070000000004" lon="13.39343">
    <ele>821.6600000000001</ele>
   </trkpt>
   <trkpt lat="42.07826" lon="13.393490000000002">
    <ele>824.9000000000001</ele>
   </trkpt>
   <trkpt lat="42.07847" lon="13.393490000000002">
    <ele>827.4300000000001</ele>
   </trkpt>
   <trkpt lat="42.078630000000004" lon="13.393790000000001">
    <ele>829.9300000000001</ele>
   </trkpt>
   <trkpt lat="42.07891000208708" lon="13.394479997005925">
    <ele>830.32</ele>
   </trkpt>
   <trkpt lat="42.079190000000004" lon="13.39517">
    <ele>829.49</ele>
   </trkpt>
   <trkpt lat="42.07932" lon="13.39535">
    <ele>829.7500000000001</ele>
   </trkpt>
   <trkpt lat="42.07941" lon="13.39559">
    <ele>830.37</ele>
   </trkpt>
   <trkpt lat="42.07954" lon="13.395740000000002">
    <ele>831.03</ele>
   </trkpt>
   <trkpt lat="42.07934" lon="13.395900000000001">
    <ele>834.2900000000001</ele>
   </trkpt>
   <trkpt lat="42.078900000000004" lon="13.396170000000001">
    <ele>834.91</ele>
   </trkpt>
   <trkpt lat="42.07856" lon="13.396440000000002">
    <ele>832.86</ele>
   </trkpt>
   <trkpt lat="42.0784" lon="13.39657">
    <ele>831.64</ele>
   </trkpt>
   <trkpt lat="42.07826" lon="13.396720000000002">
    <ele>830.7800000000001</ele>
   </trkpt>
   <trkpt lat="42.078250000000004" lon="13.396980000000001">
    <ele>832.45</ele>
   </trkpt>
   <trkpt lat="42.078230000000005" lon="13.39723">
    <ele>834.0200000000001</ele>
   </trkpt>
   <trkpt lat="42.07808" lon="13.397710000000002">
    <ele>836.23</ele>
   </trkpt>
   <trkpt lat="42.078120000000006" lon="13.397910000000001">
    <ele>849.35</ele>
   </trkpt>
   <trkpt lat="42.07806" lon="13.397940000000002">
    <ele>849.35</ele>
   </trkpt>
   <trkpt lat="42.07797" lon="13.397920000000001">
    <ele>849.35</ele>
   </trkpt>
   <trkpt lat="42.07788" lon="13.397950000000002">
    <ele>849.35</ele>
   </trkpt>
   <trkpt lat="42.07777" lon="13.398050000000001">
    <ele>849.35</ele>
   </trkpt>
   <trkpt lat="42.077560000000005" lon="13.398050000000001">
    <ele>849.35</ele>
   </trkpt>
   <trkpt lat="42.07741" lon="13.398190000000001">
    <ele>849.35</ele>
   </trkpt>
   <trkpt lat="42.07719" lon="13.398510000000002">
    <ele>849.35</ele>
   </trkpt>
   <trkpt lat="42.07692" lon="13.39864">
    <ele>827.1500000000001</ele>
   </trkpt>
   <trkpt lat="42.076330000000006" lon="13.39882">
    <ele>827.1500000000001</ele>
   </trkpt>
   <trkpt lat="42.076100000000004" lon="13.39891">
    <ele>827.1500000000001</ele>
   </trkpt>
   <trkpt lat="42.075900000000004" lon="13.399080000000001">
    <ele>827.1500000000001</ele>
   </trkpt>
   <trkpt lat="42.075900000000004" lon="13.399090000000001">
    <ele>827.12</ele>
   </trkpt>
   <trkpt lat="42.07593000000001" lon="13.39925">
    <ele>828.7200000000001</ele>
   </trkpt>
   <trkpt lat="42.07594" lon="13.399610000000001">
    <ele>834.32</ele>
   </trkpt>
   <trkpt lat="42.076" lon="13.39972">
    <ele>834.32</ele>
   </trkpt>
   <trkpt lat="42.07612" lon="13.399790000000001">
    <ele>837.0500000000001</ele>
   </trkpt>
   <trkpt lat="42.076280000000004" lon="13.400020000000001">
    <ele>838.8700000000001</ele>
   </trkpt>
   <trkpt lat="42.07683" lon="13.40066">
    <ele>841.7500000000001</ele>
   </trkpt>
   <trkpt lat="42.07694" lon="13.400850000000002">
    <ele>841.62</ele>
   </trkpt>
   <trkpt lat="42.07701" lon="13.401060000000001">
    <ele>841.33</ele>
   </trkpt>
   <trkpt lat="42.077000000000005" lon="13.40126">
    <ele>841.0400000000001</ele>
   </trkpt>
   <trkpt lat="42.07672" lon="13.40173">
    <ele>841.3900000000001</ele>
   </trkpt>
   <trkpt lat="42.07641" lon="13.40238">
    <ele>840.28</ele>
   </trkpt>
   <trkpt lat="42.07640000000001" lon="13.402750000000001">
    <ele>839.8100000000001</ele>
   </trkpt>
   <trkpt lat="42.07656" lon="13.403430000000002">
    <ele>840.7800000000001</ele>
   </trkpt>
   <trkpt lat="42.07654" lon="13.403760000000002">
    <ele>841.72</ele>
   </trkpt>
   <trkpt lat="42.07659" lon="13.403920000000001">
    <ele>842.07</ele>
   </trkpt>
   <trkpt lat="42.07658000000001" lon="13.40403">
    <ele>841.86</ele>
   </trkpt>
   <trkpt lat="42.076570000000004" lon="13.404040000000002">
    <ele>841.86</ele>
   </trkpt>
   <trkpt lat="42.07649000000001" lon="13.404060000000001">
    <ele>841.1800000000001</ele>
   </trkpt>
   <trkpt lat="42.076" lon="13.404000000000002">
    <ele>834.4100000000001</ele>
   </trkpt>
   <trkpt lat="42.075790000000005" lon="13.40389">
    <ele>833.4300000000001</ele>
   </trkpt>
   <trkpt lat="42.075610000000005" lon="13.40393">
    <ele>833.4800000000001</ele>
   </trkpt>
   <trkpt lat="42.075250000000004" lon="13.40393">
    <ele>833.8000000000001</ele>
   </trkpt>
   <trkpt lat="42.075120000000005" lon="13.40399">
    <ele>835.1500000000001</ele>
   </trkpt>
   <trkpt lat="42.07511" lon="13.40413">
    <ele>837.28</ele>
   </trkpt>
   <trkpt lat="42.07511" lon="13.40412">
    <ele>837.28</ele>
   </trkpt>
   <trkpt lat="42.07515" lon="13.40426">
    <ele>841.07</ele>
   </trkpt>
   <trkpt lat="42.07542" lon="13.404520000000002">
    <ele>846.1800000000001</ele>
   </trkpt>
   <trkpt lat="42.075860000000006" lon="13.404860000000001">
    <ele>855.1800000000001</ele>
   </trkpt>
   <trkpt lat="42.07598" lon="13.40483">
    <ele>855.6</ele>
   </trkpt>
   <trkpt lat="42.07612" lon="13.404840000000002">
    <ele>857.5400000000001</ele>
   </trkpt>
   <trkpt lat="42.07625" lon="13.40488">
    <ele>858.45</ele>
   </trkpt>
   <trkpt lat="42.076570000000004" lon="13.404770000000001">
    <ele>860.4100000000001</ele>
   </trkpt>
   <trkpt lat="42.076690000000006" lon="13.404810000000001">
    <ele>861.8000000000001</ele>
   </trkpt>
   <trkpt lat="42.07677" lon="13.404900000000001">
    <ele>862.94</ele>
   </trkpt>
   <trkpt lat="42.0767" lon="13.405030000000002">
    <ele>866.0300000000001</ele>
   </trkpt>
   <trkpt lat="42.076570000000004" lon="13.40511">
    <ele>866.0300000000001</ele>
   </trkpt>
   <trkpt lat="42.07649000000001" lon="13.405220000000002">
    <ele>867.77</ele>
   </trkpt>
   <trkpt lat="42.076370000000004" lon="13.405320000000001">
    <ele>869.69</ele>
   </trkpt>
   <trkpt lat="42.076330000000006" lon="13.405400000000002">
    <ele>870.19</ele>
   </trkpt>
   <trkpt lat="42.07636" lon="13.405460000000001">
    <ele>870.72</ele>
   </trkpt>
   <trkpt lat="42.07649000000001" lon="13.40549">
    <ele>871.89</ele>
   </trkpt>
   <trkpt lat="42.076550000000005" lon="13.40558">
    <ele>875.2200000000001</ele>
   </trkpt>
   <trkpt lat="42.076510000000006" lon="13.405700000000001">
    <ele>875.2200000000001</ele>
   </trkpt>
   <trkpt lat="42.07652" lon="13.405690000000002">
    <ele>875.2200000000001</ele>
   </trkpt>
   <trkpt lat="42.07645" lon="13.405790000000001">
    <ele>877.6700000000001</ele>
   </trkpt>
   <trkpt lat="42.076350000000005" lon="13.405880000000002">
    <ele>878.86</ele>
   </trkpt>
   <trkpt lat="42.076280000000004" lon="13.405980000000001">
    <ele>879.9300000000001</ele>
   </trkpt>
   <trkpt lat="42.076" lon="13.406160000000002">
    <ele>883.0500000000001</ele>
   </trkpt>
   <trkpt lat="42.07564" lon="13.405970000000002">
    <ele>885.69</ele>
   </trkpt>
   <trkpt lat="42.075590000000005" lon="13.406">
    <ele>885.9800000000001</ele>
   </trkpt>
   <trkpt lat="42.075540000000004" lon="13.405970000000002">
    <ele>886.4200000000001</ele>
   </trkpt>
   <trkpt lat="42.075430000000004" lon="13.40595">
    <ele>886.65</ele>
   </trkpt>
   <trkpt lat="42.075210000000006" lon="13.40582">
    <ele>886.2800000000001</ele>
   </trkpt>
   <trkpt lat="42.07493" lon="13.405800000000001">
    <ele>884.2800000000001</ele>
   </trkpt>
   <trkpt lat="42.07489" lon="13.405830000000002">
    <ele>884.2800000000001</ele>
   </trkpt>
   <trkpt lat="42.074850000000005" lon="13.405920000000002">
    <ele>884.0100000000001</ele>
   </trkpt>
   <trkpt lat="42.074830000000006" lon="13.40605">
    <ele>883.5200000000001</ele>
   </trkpt>
   <trkpt lat="42.074650000000005" lon="13.406390000000002">
    <ele>883.23</ele>
   </trkpt>
   <trkpt lat="42.07432" lon="13.40676">
    <ele>883.5200000000001</ele>
   </trkpt>
   <trkpt lat="42.07414000000001" lon="13.407200000000001">
    <ele>883.4900000000001</ele>
   </trkpt>
   <trkpt lat="42.074070000000006" lon="13.40732">
    <ele>883.48</ele>
   </trkpt>
   <trkpt lat="42.07386" lon="13.407440000000001">
    <ele>883.7900000000001</ele>
   </trkpt>
   <trkpt lat="42.07365" lon="13.407630000000001">
    <ele>884.9500000000002</ele>
   </trkpt>
   <trkpt lat="42.073040000000006" lon="13.408130000000002">
    <ele>883.72</ele>
   </trkpt>
   <trkpt lat="42.07282" lon="13.408150000000001">
    <ele>883.1300000000001</ele>
   </trkpt>
   <trkpt lat="42.0724" lon="13.40807">
    <ele>882.1600000000001</ele>
   </trkpt>
   <trkpt lat="42.07222" lon="13.40812">
    <ele>882.7900000000001</ele>
   </trkpt>
   <trkpt lat="42.072160000000004" lon="13.408190000000001">
    <ele>883.24</ele>
   </trkpt>
   <trkpt lat="42.072140000000005" lon="13.408240000000001">
    <ele>883.24</ele>
   </trkpt>
   <trkpt lat="42.072140000000005" lon="13.408310000000002">
    <ele>883.74</ele>
   </trkpt>
   <trkpt lat="42.07283" lon="13.40844">
    <ele>888.0600000000001</ele>
   </trkpt>
   <trkpt lat="42.073260000000005" lon="13.408430000000001">
    <ele>892.0600000000001</ele>
   </trkpt>
   <trkpt lat="42.07395" lon="13.408290000000001">
    <ele>903.21</ele>
   </trkpt>
   <trkpt lat="42.07424" lon="13.408270000000002">
    <ele>907.7600000000001</ele>
   </trkpt>
   <trkpt lat="42.0748" lon="13.408420000000001">
    <ele>917.7900000000001</ele>
   </trkpt>
   <trkpt lat="42.075320000000005" lon="13.408380000000001">
    <ele>926.71</ele>
   </trkpt>
   <trkpt lat="42.07584000000001" lon="13.40863">
    <ele>933.2300000000001</ele>
   </trkpt>
   <trkpt lat="42.076670000072575" lon="13.408809997631089">
    <ele>946.27</ele>
   </trkpt>
   <trkpt lat="42.0775" lon="13.408990000000001">
    <ele>951.76</ele>
   </trkpt>
   <trkpt lat="42.07806" lon="13.40929">
    <ele>957.5000000000001</ele>
   </trkpt>
   <trkpt lat="42.07875000000001" lon="13.409120000000001">
    <ele>962.08</ele>
   </trkpt>
   <trkpt lat="42.07921" lon="13.409540000000002">
    <ele>969.8100000000001</ele>
   </trkpt>
   <trkpt lat="42.079800000000006" lon="13.408970000000002">
    <ele>969.2100000000002</ele>
   </trkpt>
   <trkpt lat="42.0801850006373" lon="13.408570002486373">
    <ele>969.13</ele>
   </trkpt>
   <trkpt lat="42.08057" lon="13.408170000000002">
    <ele>968.58</ele>
   </trkpt>
   <trkpt lat="42.08048" lon="13.407850000000002">
    <ele>964.71</ele>
   </trkpt>
   <trkpt lat="42.080200000000005" lon="13.40746">
    <ele>961.3800000000001</ele>
   </trkpt>
   <trkpt lat="42.08021" lon="13.40736">
    <ele>960.45</ele>
   </trkpt>
   <trkpt lat="42.08026" lon="13.407250000000001">
    <ele>959.4300000000001</ele>
   </trkpt>
   <trkpt lat="42.08053" lon="13.40741">
    <ele>960.9000000000001</ele>
   </trkpt>
   <trkpt lat="42.080760000000005" lon="13.407610000000002">
    <ele>962.4800000000001</ele>
   </trkpt>
   <trkpt lat="42.08137000000001" lon="13.408220000000002">
    <ele>962.44</ele>
   </trkpt>
   <trkpt lat="42.08175000000001" lon="13.408760000000001">
    <ele>963.6300000000001</ele>
   </trkpt>
   <trkpt lat="42.081720000000004" lon="13.40891">
    <ele>964.45</ele>
   </trkpt>
   <trkpt lat="42.082150000000006" lon="13.40989">
    <ele>965.1800000000001</ele>
   </trkpt>
   <trkpt lat="42.082240000000006" lon="13.409980000000001">
    <ele>965.25</ele>
   </trkpt>
   <trkpt lat="42.08223" lon="13.41008">
    <ele>965.25</ele>
   </trkpt>
   <trkpt lat="42.08238" lon="13.41041">
    <ele>975.98</ele>
   </trkpt>
   <trkpt lat="42.082530000000006" lon="13.41065">
    <ele>978.35</ele>
   </trkpt>
   <trkpt lat="42.082640000000005" lon="13.410870000000001">
    <ele>981.01</ele>
   </trkpt>
   <trkpt lat="42.082770000000004" lon="13.411040000000002">
    <ele>983.9100000000001</ele>
   </trkpt>
   <trkpt lat="42.08288" lon="13.41112">
    <ele>985.33</ele>
   </trkpt>
   <trkpt lat="42.08306" lon="13.411190000000001">
    <ele>986.84</ele>
   </trkpt>
   <trkpt lat="42.08319" lon="13.411280000000001">
    <ele>988.3000000000001</ele>
   </trkpt>
   <trkpt lat="42.083400000000005" lon="13.411560000000001">
    <ele>994.7500000000001</ele>
   </trkpt>
   <trkpt lat="42.083490000000005" lon="13.41164">
    <ele>996.0200000000001</ele>
   </trkpt>
   <trkpt lat="42.083690000000004" lon="13.41167">
    <ele>997.92</ele>
   </trkpt>
   <trkpt lat="42.083870000000005" lon="13.41163">
    <ele>998.3700000000001</ele>
   </trkpt>
   <trkpt lat="42.084050000000005" lon="13.411560000000001">
    <ele>998.7900000000001</ele>
   </trkpt>
   <trkpt lat="42.084230000000005" lon="13.41164">
    <ele>1000.3900000000001</ele>
   </trkpt>
   <trkpt lat="42.08438" lon="13.411750000000001">
    <ele>1002.7300000000001</ele>
   </trkpt>
   <trkpt lat="42.0848" lon="13.411650000000002">
    <ele>1009.02</ele>
   </trkpt>
   <trkpt lat="42.08482" lon="13.411790000000002">
    <ele>1009.02</ele>
   </trkpt>
   <trkpt lat="42.08489" lon="13.411950000000001">
    <ele>1012.3600000000001</ele>
   </trkpt>
   <trkpt lat="42.084860000000006" lon="13.412">
    <ele>1012.3600000000001</ele>
   </trkpt>
   <trkpt lat="42.084790000000005" lon="13.412020000000002">
    <ele>1014.13</ele>
   </trkpt>
   <trkpt lat="42.08456" lon="13.412030000000001">
    <ele>1015.4100000000001</ele>
   </trkpt>
   <trkpt lat="42.0844" lon="13.412110000000002">
    <ele>1015.8200000000002</ele>
   </trkpt>
   <trkpt lat="42.084070000000004" lon="13.412090000000001">
    <ele>1014.3600000000001</ele>
   </trkpt>
   <trkpt lat="42.08361" lon="13.411980000000002">
    <ele>1010.7099999999999</ele>
   </trkpt>
   <trkpt lat="42.08321" lon="13.411970000000002">
    <ele>1009.52</ele>
   </trkpt>
   <trkpt lat="42.08294" lon="13.411930000000002">
    <ele>1008.68</ele>
   </trkpt>
   <trkpt lat="42.082800000000006" lon="13.41177">
    <ele>1006.0100000000001</ele>
   </trkpt>
   <trkpt lat="42.08261" lon="13.411760000000001">
    <ele>1003.0300000000001</ele>
   </trkpt>
   <trkpt lat="42.08234" lon="13.41186">
    <ele>999.2</ele>
   </trkpt>
   <trkpt lat="42.082240000000006" lon="13.41187">
    <ele>996.7300000000001</ele>
   </trkpt>
   <trkpt lat="42.08218" lon="13.41191">
    <ele>996.7300000000001</ele>
   </trkpt>
   <trkpt lat="42.08211" lon="13.41192">
    <ele>994.6400000000001</ele>
   </trkpt>
   <trkpt lat="42.082" lon="13.411880000000002">
    <ele>994.6400000000001</ele>
   </trkpt>
   <trkpt lat="42.08178" lon="13.412">
    <ele>988.1800000000001</ele>
   </trkpt>
   <trkpt lat="42.08155" lon="13.41205">
    <ele>986.38</ele>
   </trkpt>
   <trkpt lat="42.08137000000001" lon="13.4122">
    <ele>984.47</ele>
   </trkpt>
   <trkpt lat="42.08133" lon="13.412270000000001">
    <ele>982.49</ele>
   </trkpt>
   <trkpt lat="42.08133" lon="13.412460000000001">
    <ele>981.38</ele>
   </trkpt>
   <trkpt lat="42.08127" lon="13.412550000000001">
    <ele>979.01</ele>
   </trkpt>
   <trkpt lat="42.08122" lon="13.412540000000002">
    <ele>979.01</ele>
   </trkpt>
   <trkpt lat="42.08115" lon="13.41257">
    <ele>978.37</ele>
   </trkpt>
   <trkpt lat="42.08111" lon="13.41261">
    <ele>977.6800000000001</ele>
   </trkpt>
   <trkpt lat="42.080940000000005" lon="13.41289">
    <ele>972.8800000000001</ele>
   </trkpt>
   <trkpt lat="42.081" lon="13.41294">
    <ele>972.89</ele>
   </trkpt>
   <trkpt lat="42.08097" lon="13.413060000000002">
    <ele>972.2700000000001</ele>
   </trkpt>
   <trkpt lat="42.08102" lon="13.413570000000002">
    <ele>968.84</ele>
   </trkpt>
   <trkpt lat="42.08099" lon="13.41375">
    <ele>966.6300000000001</ele>
   </trkpt>
   <trkpt lat="42.08095" lon="13.413960000000001">
    <ele>965.0900000000001</ele>
   </trkpt>
   <trkpt lat="42.080780000000004" lon="13.414420000000002">
    <ele>961.0400000000001</ele>
   </trkpt>
   <trkpt lat="42.080760000000005" lon="13.414620000000001">
    <ele>959.23</ele>
   </trkpt>
   <trkpt lat="42.08044" lon="13.415510000000001">
    <ele>948.57</ele>
   </trkpt>
   <trkpt lat="42.08001500056911" lon="13.41581000188334">
    <ele>940.1700000000001</ele>
   </trkpt>
   <trkpt lat="42.07959" lon="13.416110000000002">
    <ele>932.2300000000001</ele>
   </trkpt>
   <trkpt lat="42.079510000000006" lon="13.416070000000001">
    <ele>933.25</ele>
   </trkpt>
   <trkpt lat="42.079260000000005" lon="13.416070000000001">
    <ele>938.0</ele>
   </trkpt>
   <trkpt lat="42.079170000000005" lon="13.41605">
    <ele>939.5600000000001</ele>
   </trkpt>
   <trkpt lat="42.07907" lon="13.415970000000002">
    <ele>941.1600000000001</ele>
   </trkpt>
   <trkpt lat="42.07889" lon="13.415680000000002">
    <ele>943.58</ele>
   </trkpt>
   <trkpt lat="42.078900000000004" lon="13.41552">
    <ele>944.5700000000002</ele>
   </trkpt>
   <trkpt lat="42.078970000000005" lon="13.41543">
    <ele>945.1400000000001</ele>
   </trkpt>
   <trkpt lat="42.078990000000005" lon="13.415350000000002">
    <ele>945.4000000000001</ele>
   </trkpt>
   <trkpt lat="42.07894" lon="13.415270000000001">
    <ele>945.4800000000001</ele>
   </trkpt>
   <trkpt lat="42.078770000000006" lon="13.415070000000002">
    <ele>945.7200000000001</ele>
   </trkpt>
   <trkpt lat="42.078680000000006" lon="13.41492">
    <ele>946.12</ele>
   </trkpt>
   <trkpt lat="42.078430000000004" lon="13.414200000000001">
    <ele>946.35</ele>
   </trkpt>
   <trkpt lat="42.07826" lon="13.413780000000001">
    <ele>949.25</ele>
   </trkpt>
   <trkpt lat="42.07826" lon="13.413770000000001">
    <ele>949.2900000000001</ele>
   </trkpt>
   <trkpt lat="42.07836" lon="13.413620000000002">
    <ele>949.73</ele>
   </trkpt>
   <trkpt lat="42.07849" lon="13.41327">
    <ele>950.46</ele>
   </trkpt>
   <trkpt lat="42.07869" lon="13.412870000000002">
    <ele>951.1100000000001</ele>
   </trkpt>
   <trkpt lat="42.078920000000004" lon="13.41228">
    <ele>951.69</ele>
   </trkpt>
   <trkpt lat="42.079060000000005" lon="13.412110000000002">
    <ele>951.9900000000001</ele>
   </trkpt>
   <trkpt lat="42.07912" lon="13.412080000000001">
    <ele>952.3600000000001</ele>
   </trkpt>
   <trkpt lat="42.079190000000004" lon="13.4121">
    <ele>952.3600000000001</ele>
   </trkpt>
   <trkpt lat="42.07923" lon="13.41214">
    <ele>953.0</ele>
   </trkpt>
   <trkpt lat="42.07929" lon="13.412160000000002">
    <ele>953.0</ele>
   </trkpt>
   <trkpt lat="42.07963" lon="13.412210000000002">
    <ele>954.76</ele>
   </trkpt>
   <trkpt lat="42.08001" lon="13.41215">
    <ele>961.0400000000001</ele>
   </trkpt>
   <trkpt lat="42.080310000000004" lon="13.412130000000001">
    <ele>964.13</ele>
   </trkpt>
   <trkpt lat="42.080380000000005" lon="13.412090000000001">
    <ele>964.13</ele>
   </trkpt>
   <trkpt lat="42.08046" lon="13.412080000000001">
    <ele>967.58</ele>
   </trkpt>
   <trkpt lat="42.08057" lon="13.411990000000001">
    <ele>967.58</ele>
   </trkpt>
   <trkpt lat="42.0807" lon="13.411980000000002">
    <ele>969.23</ele>
   </trkpt>
   <trkpt lat="42.08081000000001" lon="13.411740000000002">
    <ele>968.3000000000001</ele>
   </trkpt>
   <trkpt lat="42.08072000000001" lon="13.41167">
    <ele>970.64</ele>
   </trkpt>
   <trkpt lat="42.08059" lon="13.411460000000002">
    <ele>967.96</ele>
   </trkpt>
   <trkpt lat="42.08043000000001" lon="13.411240000000001">
    <ele>965.23</ele>
   </trkpt>
   <trkpt lat="42.080290000000005" lon="13.411410000000002">
    <ele>965.82</ele>
   </trkpt>
   <trkpt lat="42.07988" lon="13.411840000000002">
    <ele>965.1400000000001</ele>
   </trkpt>
   <trkpt lat="42.07977" lon="13.411940000000001">
    <ele>964.8700000000001</ele>
   </trkpt>
   <trkpt lat="42.07965" lon="13.412020000000002">
    <ele>963.3800000000001</ele>
   </trkpt>
   <trkpt lat="42.07968" lon="13.41173">
    <ele>961.19</ele>
   </trkpt>
   <trkpt lat="42.079440000000005" lon="13.411290000000001">
    <ele>960.8900000000001</ele>
   </trkpt>
   <trkpt lat="42.08012" lon="13.410540000000001">
    <ele>962.1800000000001</ele>
   </trkpt>
   <trkpt lat="42.08005" lon="13.41041">
    <ele>962.4800000000001</ele>
   </trkpt>
   <trkpt lat="42.07949000000001" lon="13.409770000000002">
    <ele>968.5600000000001</ele>
   </trkpt>
   <trkpt lat="42.07943" lon="13.40981">
    <ele>968.5600000000001</ele>
   </trkpt>
   <trkpt lat="42.079170000000005" lon="13.409860000000002">
    <ele>969.2</ele>
   </trkpt>
   <trkpt lat="42.078920000000004" lon="13.410000000000002">
    <ele>970.0300000000001</ele>
   </trkpt>
   <trkpt lat="42.078610000000005" lon="13.41032">
    <ele>972.89</ele>
   </trkpt>
   <trkpt lat="42.078480000000006" lon="13.41042">
    <ele>976.2900000000001</ele>
   </trkpt>
   <trkpt lat="42.07799000000001" lon="13.410590000000001">
    <ele>980.8000000000001</ele>
   </trkpt>
   <trkpt lat="42.07739" lon="13.410910000000001">
    <ele>991.33</ele>
   </trkpt>
   <trkpt lat="42.07734000000001" lon="13.41103">
    <ele>992.0600000000001</ele>
   </trkpt>
   <trkpt lat="42.07724" lon="13.41117">
    <ele>992.8000000000001</ele>
   </trkpt>
   <trkpt lat="42.077070000000006" lon="13.411270000000002">
    <ele>993.2700000000001</ele>
   </trkpt>
   <trkpt lat="42.07697" lon="13.41131">
    <ele>993.2700000000001</ele>
   </trkpt>
   <trkpt lat="42.076660000000004" lon="13.411360000000002">
    <ele>993.07</ele>
   </trkpt>
   <trkpt lat="42.076510000000006" lon="13.412020000000002">
    <ele>985.22</ele>
   </trkpt>
   <trkpt lat="42.076440000000005" lon="13.412130000000001">
    <ele>985.22</ele>
   </trkpt>
   <trkpt lat="42.076420000000006" lon="13.4122">
    <ele>980.0500000000001</ele>
   </trkpt>
   <trkpt lat="42.07643" lon="13.41229">
    <ele>980.0500000000001</ele>
   </trkpt>
   <trkpt lat="42.076620000000005" lon="13.412600000000001">
    <ele>973.83</ele>
   </trkpt>
   <trkpt lat="42.076660000000004" lon="13.4128">
    <ele>971.46</ele>
   </trkpt>
   <trkpt lat="42.076710000000006" lon="13.4128">
    <ele>971.46</ele>
   </trkpt>
   <trkpt lat="42.07678000000001" lon="13.412840000000001">
    <ele>973.1500000000001</ele>
   </trkpt>
   <trkpt lat="42.07683" lon="13.412830000000001">
    <ele>973.1500000000001</ele>
   </trkpt>
   <trkpt lat="42.076980000000006" lon="13.412680000000002">
    <ele>974.0300000000001</ele>
   </trkpt>
   <trkpt lat="42.07708" lon="13.412700000000001">
    <ele>974.49</ele>
   </trkpt>
   <trkpt lat="42.07721" lon="13.41267">
    <ele>974.69</ele>
   </trkpt>
   <trkpt lat="42.077290000000005" lon="13.412630000000002">
    <ele>974.8200000000002</ele>
   </trkpt>
   <trkpt lat="42.077400000000004" lon="13.41252">
    <ele>974.86</ele>
   </trkpt>
   <trkpt lat="42.077470000000005" lon="13.412370000000001">
    <ele>974.8500000000001</ele>
   </trkpt>
   <trkpt lat="42.07755" lon="13.412070000000002">
    <ele>974.57</ele>
   </trkpt>
   <trkpt lat="42.077630000000006" lon="13.41201">
    <ele>973.84</ele>
   </trkpt>
   <trkpt lat="42.0778" lon="13.41178">
    <ele>973.6600000000001</ele>
   </trkpt>
   <trkpt lat="42.0777" lon="13.41187">
    <ele>974.28</ele>
   </trkpt>
   <trkpt lat="42.077630000000006" lon="13.41201">
    <ele>974.28</ele>
   </trkpt>
   <trkpt lat="42.07755" lon="13.412070000000002">
    <ele>974.57</ele>
   </trkpt>
   <trkpt lat="42.077470000000005" lon="13.412370000000001">
    <ele>974.8500000000001</ele>
   </trkpt>
   <trkpt lat="42.077400000000004" lon="13.41252">
    <ele>974.86</ele>
   </trkpt>
   <trkpt lat="42.077290000000005" lon="13.412630000000002">
    <ele>974.8200000000002</ele>
   </trkpt>
   <trkpt lat="42.07721" lon="13.41267">
    <ele>974.69</ele>
   </trkpt>
   <trkpt lat="42.07708" lon="13.412700000000001">
    <ele>974.49</ele>
   </trkpt>
   <trkpt lat="42.076980000000006" lon="13.412680000000002">
    <ele>974.0300000000001</ele>
   </trkpt>
   <trkpt lat="42.07683" lon="13.412830000000001">
    <ele>973.1500000000001</ele>
   </trkpt>
   <trkpt lat="42.07678000000001" lon="13.412840000000001">
    <ele>973.1500000000001</ele>
   </trkpt>
   <trkpt lat="42.076710000000006" lon="13.4128">
    <ele>971.46</ele>
   </trkpt>
   <trkpt lat="42.076660000000004" lon="13.4128">
    <ele>971.46</ele>
   </trkpt>
   <trkpt lat="42.07667" lon="13.41289">
    <ele>971.3000000000001</ele>
   </trkpt>
   <trkpt lat="42.07674" lon="13.413">
    <ele>970.3600000000001</ele>
   </trkpt>
   <trkpt lat="42.07706" lon="13.41323">
    <ele>965.84</ele>
   </trkpt>
   <trkpt lat="42.07717" lon="13.413330000000002">
    <ele>963.8100000000001</ele>
   </trkpt>
   <trkpt lat="42.07721" lon="13.413430000000002">
    <ele>963.8100000000001</ele>
   </trkpt>
   <trkpt lat="42.07726" lon="13.413660000000002">
    <ele>958.8700000000001</ele>
   </trkpt>
   <trkpt lat="42.077180000000006" lon="13.414000000000001">
    <ele>955.03</ele>
   </trkpt>
   <trkpt lat="42.077130000000004" lon="13.41408">
    <ele>954.5000000000001</ele>
   </trkpt>
   <trkpt lat="42.076840000000004" lon="13.414100000000001">
    <ele>950.19</ele>
   </trkpt>
   <trkpt lat="42.076660000000004" lon="13.414240000000001">
    <ele>948.94</ele>
   </trkpt>
   <trkpt lat="42.076660000000004" lon="13.414250000000001">
    <ele>948.86</ele>
   </trkpt>
   <trkpt lat="42.07652" lon="13.414140000000002">
    <ele>945.82</ele>
   </trkpt>
   <trkpt lat="42.07640000000001" lon="13.413990000000002">
    <ele>943.12</ele>
   </trkpt>
   <trkpt lat="42.07609" lon="13.413780000000001">
    <ele>938.7900000000001</ele>
   </trkpt>
   <trkpt lat="42.075410000000005" lon="13.413620000000002">
    <ele>930.2900000000001</ele>
   </trkpt>
   <trkpt lat="42.07493" lon="13.41356">
    <ele>926.15</ele>
   </trkpt>
   <trkpt lat="42.07441" lon="13.41355">
    <ele>923.0300000000001</ele>
   </trkpt>
   <trkpt lat="42.07394000001269" lon="13.413444999214596">
    <ele>920.8600000000001</ele>
   </trkpt>
   <trkpt lat="42.07347" lon="13.413340000000002">
    <ele>917.87</ele>
   </trkpt>
   <trkpt lat="42.07309" lon="13.413340000000002">
    <ele>916.48</ele>
   </trkpt>
   <trkpt lat="42.07302000000001" lon="13.41337">
    <ele>916.2500000000001</ele>
   </trkpt>
   <trkpt lat="42.07298" lon="13.413450000000001">
    <ele>915.6400000000001</ele>
   </trkpt>
   <trkpt lat="42.07291" lon="13.413760000000002">
    <ele>913.6500000000001</ele>
   </trkpt>
   <trkpt lat="42.0728" lon="13.413860000000001">
    <ele>912.1700000000001</ele>
   </trkpt>
   <trkpt lat="42.072590000000005" lon="13.413810000000002">
    <ele>910.99</ele>
   </trkpt>
   <trkpt lat="42.0724" lon="13.413680000000001">
    <ele>910.0300000000001</ele>
   </trkpt>
   <trkpt lat="42.07182" lon="13.41337">
    <ele>909.09</ele>
   </trkpt>
   <trkpt lat="42.07151" lon="13.413110000000001">
    <ele>908.0</ele>
   </trkpt>
   <trkpt lat="42.07123" lon="13.412910000000002">
    <ele>907.36</ele>
   </trkpt>
   <trkpt lat="42.07105000000001" lon="13.412700000000001">
    <ele>906.6700000000001</ele>
   </trkpt>
   <trkpt lat="42.07095" lon="13.412630000000002">
    <ele>906.36</ele>
   </trkpt>
   <trkpt lat="42.07079" lon="13.412560000000001">
    <ele>905.17</ele>
   </trkpt>
   <trkpt lat="42.07074" lon="13.412420000000001">
    <ele>903.5600000000001</ele>
   </trkpt>
   <trkpt lat="42.070750000000004" lon="13.41225">
    <ele>903.5600000000001</ele>
   </trkpt>
   <trkpt lat="42.070840000000004" lon="13.412030000000001">
    <ele>901.58</ele>
   </trkpt>
   <trkpt lat="42.07079" lon="13.41196">
    <ele>900.63</ele>
   </trkpt>
   <trkpt lat="42.07072" lon="13.412020000000002">
    <ele>899.36</ele>
   </trkpt>
   <trkpt lat="42.07054" lon="13.41225">
    <ele>897.58</ele>
   </trkpt>
   <trkpt lat="42.070420000000006" lon="13.412270000000001">
    <ele>897.58</ele>
   </trkpt>
   <trkpt lat="42.070150000000005" lon="13.41224">
    <ele>893.29</ele>
   </trkpt>
   <trkpt lat="42.06996" lon="13.412170000000001">
    <ele>891.9</ele>
   </trkpt>
   <trkpt lat="42.069610000000004" lon="13.41215">
    <ele>887.1700000000001</ele>
   </trkpt>
   <trkpt lat="42.069390000000006" lon="13.412070000000002">
    <ele>885.3100000000001</ele>
   </trkpt>
   <trkpt lat="42.06904" lon="13.412020000000002">
    <ele>881.36</ele>
   </trkpt>
   <trkpt lat="42.068430000000006" lon="13.41187">
    <ele>874.4600000000002</ele>
   </trkpt>
   <trkpt lat="42.068130000000004" lon="13.411950000000001">
    <ele>868.1200000000001</ele>
   </trkpt>
   <trkpt lat="42.06785" lon="13.411980000000002">
    <ele>864.9000000000001</ele>
   </trkpt>
   <trkpt lat="42.067600000000006" lon="13.411940000000001">
    <ele>860.5100000000001</ele>
   </trkpt>
   <trkpt lat="42.06747" lon="13.41187">
    <ele>857.8800000000001</ele>
   </trkpt>
   <trkpt lat="42.0673" lon="13.41187">
    <ele>852.3600000000001</ele>
   </trkpt>
   <trkpt lat="42.067040000000006" lon="13.412020000000002">
    <ele>844.34</ele>
   </trkpt>
   <trkpt lat="42.06687" lon="13.41214">
    <ele>835.3100000000001</ele>
   </trkpt>
   <trkpt lat="42.06656" lon="13.412500000000001">
    <ele>825.7800000000001</ele>
   </trkpt>
   <trkpt lat="42.06606" lon="13.41281">
    <ele>812.2600000000001</ele>
   </trkpt>
   <trkpt lat="42.06584" lon="13.413010000000002">
    <ele>807.6</ele>
   </trkpt>
   <trkpt lat="42.065650000000005" lon="13.413210000000001">
    <ele>802.9600000000002</ele>
   </trkpt>
   <trkpt lat="42.06519" lon="13.41342">
    <ele>791.36</ele>
   </trkpt>
   <trkpt lat="42.06495" lon="13.413590000000001">
    <ele>788.02</ele>
   </trkpt>
   <trkpt lat="42.06458000000001" lon="13.413810000000002">
    <ele>783.33</ele>
   </trkpt>
   <trkpt lat="42.06409" lon="13.41421">
    <ele>782.1600000000001</ele>
   </trkpt>
   <trkpt lat="42.064" lon="13.413530000000002">
    <ele>779.4700000000001</ele>
   </trkpt>
   <trkpt lat="42.06374" lon="13.412680000000002">
    <ele>776.7600000000001</ele>
   </trkpt>
   <trkpt lat="42.06326000000001" lon="13.413190000000002">
    <ele>777.4100000000001</ele>
   </trkpt>
   <trkpt lat="42.06317000000001" lon="13.41336">
    <ele>777.46</ele>
   </trkpt>
  </trkseg>
 </trk>
</gpx>
