<?xml version='1.0' encoding='UTF-8'?>
<gpx version="1.1" creator="https://www.komoot.de" xmlns="http://www.topografix.com/GPX/1/1" xmlns:xsi="http://www.w3.org/2001/XMLSchema-instance" xsi:schemaLocation="http://www.topografix.com/GPX/1/1 http://www.topografix.com/GPX/1/1/gpx.xsd">
  <metadata>
    <name>GRAN SASSO TRAIL 2025 Classic</name>
    <author>
      <link href="https://www.komoot.de">
        <text>komoot</text>
        <type>text/html</type>
      </link>
    </author>
  </metadata>
  <trk>
    <name>GRAN SASSO TRAIL 2025 Classic</name>
    <trkseg>
      <trkpt lat="42.522929" lon="13.553607">
        <ele>1049.782145</ele>
        <time>2025-11-27T07:24:33.134Z</time>
      </trkpt>
      <trkpt lat="42.522925" lon="13.553601">
        <ele>1049.782145</ele>
        <time>2025-11-27T07:24:33.731Z</time>
      </trkpt>
      <trkpt lat="42.522891" lon="13.553548">
        <ele>1049.782145</ele>
        <time>2025-11-27T07:24:38.983Z</time>
      </trkpt>
      <trkpt lat="42.522834" lon="13.553535">
        <ele>1049.782145</ele>
        <time>2025-11-27T07:24:45.266Z</time>
      </trkpt>
      <trkpt lat="42.522763" lon="13.553560">
        <ele>1049.782145</ele>
        <time>2025-11-27T07:24:52.763Z</time>
      </trkpt>
      <trkpt lat="42.522762" lon="13.553565">
        <ele>1049.782145</ele>
        <time>2025-11-27T07:24:53.169Z</time>
      </trkpt>
      <trkpt lat="42.522739" lon="13.553659">
        <ele>1049.782145</ele>
        <time>2025-11-27T07:25:01.230Z</time>
      </trkpt>
      <trkpt lat="42.522747" lon="13.553710">
        <ele>1049.782145</ele>
        <time>2025-11-27T07:25:05.348Z</time>
      </trkpt>
      <trkpt lat="42.522928" lon="13.553961">
        <ele>1049.782145</ele>
        <time>2025-11-27T07:25:35.004Z</time>
      </trkpt>
      <trkpt lat="42.523271" lon="13.554318">
        <ele>1050.519009</ele>
        <time>2025-11-27T07:26:28.202Z</time>
      </trkpt>
      <trkpt lat="42.523342" lon="13.554462">
        <ele>1051.499878</ele>
        <time>2025-11-27T07:26:44.737Z</time>
      </trkpt>
      <trkpt lat="42.523382" lon="13.555105">
        <ele>1055.153151</ele>
        <time>2025-11-27T07:27:42.306Z</time>
      </trkpt>
      <trkpt lat="42.523477" lon="13.555601">
        <ele>1058.054515</ele>
        <time>2025-11-27T07:28:31.109Z</time>
      </trkpt>
      <trkpt lat="42.523472" lon="13.555976">
        <ele>1060.177911</ele>
        <time>2025-11-27T07:29:08.300Z</time>
      </trkpt>
      <trkpt lat="42.523482" lon="13.556258">
        <ele>1061.776291</ele>
        <time>2025-11-27T07:29:35.982Z</time>
      </trkpt>
      <trkpt lat="42.523636" lon="13.556933">
        <ele>1065.368749</ele>
        <time>2025-11-27T07:30:41.806Z</time>
      </trkpt>
      <trkpt lat="42.523665" lon="13.557355">
        <ele>1067.318774</ele>
        <time>2025-11-27T07:31:19.388Z</time>
      </trkpt>
      <trkpt lat="42.523652" lon="13.557832">
        <ele>1069.514929</ele>
        <time>2025-11-27T07:32:01.380Z</time>
      </trkpt>
      <trkpt lat="42.523616" lon="13.557781">
        <ele>1069.839842</ele>
        <time>2025-11-27T07:32:07.687Z</time>
      </trkpt>
      <trkpt lat="42.523447" lon="13.557538">
        <ele>1071.377082</ele>
        <time>2025-11-27T07:32:37.852Z</time>
      </trkpt>
      <trkpt lat="42.522921" lon="13.556651">
        <ele>1075.005014</ele>
        <time>2025-11-27T07:34:18.754Z</time>
      </trkpt>
      <trkpt lat="42.522673" lon="13.556176">
        <ele>1075.270940</ele>
        <time>2025-11-27T07:35:05.153Z</time>
      </trkpt>
      <trkpt lat="42.522630" lon="13.556093">
        <ele>1075.317288</ele>
        <time>2025-11-27T07:35:12.983Z</time>
      </trkpt>
      <trkpt lat="42.522533" lon="13.555838">
        <ele>1075.448381</ele>
        <time>2025-11-27T07:35:34.448Z</time>
      </trkpt>
      <trkpt lat="42.522366" lon="13.555396">
        <ele>1075.675288</ele>
        <time>2025-11-27T07:36:12.074Z</time>
      </trkpt>
      <trkpt lat="42.522195" lon="13.555223">
        <ele>1075.807503</ele>
        <time>2025-11-27T07:36:34.437Z</time>
      </trkpt>
      <trkpt lat="42.522164" lon="13.554970">
        <ele>1075.924668</ele>
        <time>2025-11-27T07:36:54.536Z</time>
      </trkpt>
      <trkpt lat="42.522192" lon="13.554506">
        <ele>1073.847355</ele>
        <time>2025-11-27T07:37:32.010Z</time>
      </trkpt>
      <trkpt lat="42.522200" lon="13.554362">
        <ele>1073.138419</ele>
        <time>2025-11-27T07:37:43.414Z</time>
      </trkpt>
      <trkpt lat="42.522206" lon="13.553969">
        <ele>1071.208672</ele>
        <time>2025-11-27T07:38:14.817Z</time>
      </trkpt>
      <trkpt lat="42.522198" lon="13.553750">
        <ele>1070.132228</ele>
        <time>2025-11-27T07:38:32.929Z</time>
      </trkpt>
      <trkpt lat="42.522121" lon="13.553518">
        <ele>1068.883125</ele>
        <time>2025-11-27T07:38:54.908Z</time>
      </trkpt>
      <trkpt lat="42.522103" lon="13.553390">
        <ele>1068.243405</ele>
        <time>2025-11-27T07:39:06.561Z</time>
      </trkpt>
      <trkpt lat="42.522097" lon="13.553310">
        <ele>1067.848637</ele>
        <time>2025-11-27T07:39:13.751Z</time>
      </trkpt>
      <trkpt lat="42.522078" lon="13.553198">
        <ele>1067.284423</ele>
        <time>2025-11-27T07:39:24.011Z</time>
      </trkpt>
      <trkpt lat="42.521970" lon="13.552921">
        <ele>1065.746000</ele>
        <time>2025-11-27T07:39:51.989Z</time>
      </trkpt>
      <trkpt lat="42.521770" lon="13.552522">
        <ele>1063.810959</ele>
        <time>2025-11-27T07:40:33.958Z</time>
      </trkpt>
      <trkpt lat="42.521680" lon="13.552520">
        <ele>1063.656379</ele>
        <time>2025-11-27T07:40:44.222Z</time>
      </trkpt>
      <trkpt lat="42.521639" lon="13.552460">
        <ele>1063.552817</ele>
        <time>2025-11-27T07:40:51.179Z</time>
      </trkpt>
      <trkpt lat="42.521603" lon="13.552368">
        <ele>1063.420977</ele>
        <time>2025-11-27T07:40:59.901Z</time>
      </trkpt>
      <trkpt lat="42.521659" lon="13.552322">
        <ele>1063.308555</ele>
        <time>2025-11-27T07:41:07.375Z</time>
      </trkpt>
      <trkpt lat="42.521303" lon="13.552226">
        <ele>1062.685226</ele>
        <time>2025-11-27T07:41:58.298Z</time>
      </trkpt>
      <trkpt lat="42.521123" lon="13.552077">
        <ele>1062.323117</ele>
        <time>2025-11-27T07:42:27.561Z</time>
      </trkpt>
      <trkpt lat="42.520836" lon="13.551984">
        <ele>1061.816380</ele>
        <time>2025-11-27T07:42:58.325Z</time>
      </trkpt>
      <trkpt lat="42.520107" lon="13.551873">
        <ele>1062.859107</ele>
        <time>2025-11-27T07:44:27.379Z</time>
      </trkpt>
      <trkpt lat="42.519660" lon="13.551711">
        <ele>1067.850186</ele>
        <time>2025-11-27T07:45:30.648Z</time>
      </trkpt>
      <trkpt lat="42.519320" lon="13.551588">
        <ele>1071.646081</ele>
        <time>2025-11-27T07:46:22.541Z</time>
      </trkpt>
      <trkpt lat="42.518870" lon="13.551515">
        <ele>1076.535035</ele>
        <time>2025-11-27T07:47:32.244Z</time>
      </trkpt>
      <trkpt lat="42.518520" lon="13.551343">
        <ele>1080.478669</ele>
        <time>2025-11-27T07:48:26.461Z</time>
      </trkpt>
      <trkpt lat="42.518085" lon="13.551218">
        <ele>1084.018975</ele>
        <time>2025-11-27T07:49:26.641Z</time>
      </trkpt>
      <trkpt lat="42.517789" lon="13.551088">
        <ele>1086.496135</ele>
        <time>2025-11-27T07:50:06.164Z</time>
      </trkpt>
      <trkpt lat="42.517472" lon="13.550785">
        <ele>1089.583569</ele>
        <time>2025-11-27T07:50:52.595Z</time>
      </trkpt>
      <trkpt lat="42.516854" lon="13.550099">
        <ele>1096.466284</ele>
        <time>2025-11-27T07:52:26.648Z</time>
      </trkpt>
      <trkpt lat="42.516236" lon="13.549289">
        <ele>1105.979704</ele>
        <time>2025-11-27T07:54:22.643Z</time>
      </trkpt>
      <trkpt lat="42.515628" lon="13.548438">
        <ele>1115.738320</ele>
        <time>2025-11-27T07:56:43.463Z</time>
      </trkpt>
      <trkpt lat="42.514674" lon="13.547404">
        <ele>1130.288521</ele>
        <time>2025-11-27T07:59:45.231Z</time>
      </trkpt>
      <trkpt lat="42.514113" lon="13.546928">
        <ele>1137.444372</ele>
        <time>2025-11-27T08:01:11.932Z</time>
      </trkpt>
      <trkpt lat="42.513891" lon="13.546687">
        <ele>1139.725580</ele>
        <time>2025-11-27T08:01:48.719Z</time>
      </trkpt>
      <trkpt lat="42.513370" lon="13.546238">
        <ele>1144.677785</ele>
        <time>2025-11-27T08:03:07.384Z</time>
      </trkpt>
      <trkpt lat="42.512947" lon="13.546014">
        <ele>1148.320994</ele>
        <time>2025-11-27T08:04:04.619Z</time>
      </trkpt>
      <trkpt lat="42.512876" lon="13.545953">
        <ele>1148.995269</ele>
        <time>2025-11-27T08:04:15.092Z</time>
      </trkpt>
      <trkpt lat="42.512640" lon="13.545841">
        <ele>1150.750768</ele>
        <time>2025-11-27T08:04:46.161Z</time>
      </trkpt>
      <trkpt lat="42.512167" lon="13.545618">
        <ele>1153.165906</ele>
        <time>2025-11-27T08:05:46.895Z</time>
      </trkpt>
      <trkpt lat="42.511659" lon="13.545155">
        <ele>1156.117619</ele>
        <time>2025-11-27T08:06:57.860Z</time>
      </trkpt>
      <trkpt lat="42.511309" lon="13.544990">
        <ele>1157.904709</ele>
        <time>2025-11-27T08:07:39.741Z</time>
      </trkpt>
      <trkpt lat="42.511078" lon="13.544931">
        <ele>1159.038408</ele>
        <time>2025-11-27T08:08:05.932Z</time>
      </trkpt>
      <trkpt lat="42.510950" lon="13.544782">
        <ele>1159.522599</ele>
        <time>2025-11-27T08:08:24.567Z</time>
      </trkpt>
      <trkpt lat="42.510314" lon="13.544521">
        <ele>1161.414318</ele>
        <time>2025-11-27T08:09:37.448Z</time>
      </trkpt>
      <trkpt lat="42.509964" lon="13.544472">
        <ele>1162.416056</ele>
        <time>2025-11-27T08:10:15.770Z</time>
      </trkpt>
      <trkpt lat="42.508491" lon="13.543875">
        <ele>1167.605311</ele>
        <time>2025-11-27T08:13:05.013Z</time>
      </trkpt>
      <trkpt lat="42.508375" lon="13.543875">
        <ele>1168.037820</ele>
        <time>2025-11-27T08:13:18.185Z</time>
      </trkpt>
      <trkpt lat="42.507650" lon="13.543927">
        <ele>1170.744778</ele>
        <time>2025-11-27T08:14:42.095Z</time>
      </trkpt>
      <trkpt lat="42.507010" lon="13.543754">
        <ele>1173.797160</ele>
        <time>2025-11-27T08:15:59.715Z</time>
      </trkpt>
      <trkpt lat="42.506039" lon="13.543769">
        <ele>1178.391374</ele>
        <time>2025-11-27T08:17:52.939Z</time>
      </trkpt>
      <trkpt lat="42.505088" lon="13.543663">
        <ele>1182.690493</ele>
        <time>2025-11-27T08:19:41.542Z</time>
      </trkpt>
      <trkpt lat="42.504930" lon="13.543581">
        <ele>1183.441907</ele>
        <time>2025-11-27T08:20:00.638Z</time>
      </trkpt>
      <trkpt lat="42.504699" lon="13.543518">
        <ele>1184.488490</ele>
        <time>2025-11-27T08:20:27.413Z</time>
      </trkpt>
      <trkpt lat="42.504124" lon="13.543573">
        <ele>1187.048853</ele>
        <time>2025-11-27T08:21:34.258Z</time>
      </trkpt>
      <trkpt lat="42.503451" lon="13.543425">
        <ele>1191.597615</ele>
        <time>2025-11-27T08:22:57.151Z</time>
      </trkpt>
      <trkpt lat="42.503179" lon="13.543420">
        <ele>1193.485469</ele>
        <time>2025-11-27T08:23:31.107Z</time>
      </trkpt>
      <trkpt lat="42.502873" lon="13.543482">
        <ele>1195.632672</ele>
        <time>2025-11-27T08:24:10.147Z</time>
      </trkpt>
      <trkpt lat="42.502482" lon="13.543310">
        <ele>1198.485350</ele>
        <time>2025-11-27T08:25:02.177Z</time>
      </trkpt>
      <trkpt lat="42.501345" lon="13.543668">
        <ele>1206.964621</ele>
        <time>2025-11-27T08:27:29.091Z</time>
      </trkpt>
      <trkpt lat="42.499845" lon="13.543350">
        <ele>1217.891839</ele>
        <time>2025-11-27T08:30:37.616Z</time>
      </trkpt>
      <trkpt lat="42.499634" lon="13.543466">
        <ele>1219.494057</ele>
        <time>2025-11-27T08:31:05.810Z</time>
      </trkpt>
      <trkpt lat="42.499308" lon="13.543534">
        <ele>1221.815199</ele>
        <time>2025-11-27T08:31:46.568Z</time>
      </trkpt>
      <trkpt lat="42.498133" lon="13.543315">
        <ele>1229.538422</ele>
        <time>2025-11-27T08:34:14.136Z</time>
      </trkpt>
      <trkpt lat="42.497868" lon="13.543496">
        <ele>1231.334776</ele>
        <time>2025-11-27T08:34:50.445Z</time>
      </trkpt>
      <trkpt lat="42.497575" lon="13.543457">
        <ele>1233.117216</ele>
        <time>2025-11-27T08:35:25.846Z</time>
      </trkpt>
      <trkpt lat="42.497386" lon="13.543509">
        <ele>1234.284791</ele>
        <time>2025-11-27T08:35:48.713Z</time>
      </trkpt>
      <trkpt lat="42.497234" lon="13.543674">
        <ele>1235.463508</ele>
        <time>2025-11-27T08:36:11.362Z</time>
      </trkpt>
      <trkpt lat="42.496884" lon="13.543663">
        <ele>1237.702011</ele>
        <time>2025-11-27T08:36:51.828Z</time>
      </trkpt>
      <trkpt lat="42.496728" lon="13.543735">
        <ele>1238.818994</ele>
        <time>2025-11-27T08:37:11.024Z</time>
      </trkpt>
      <trkpt lat="42.496513" lon="13.543667">
        <ele>1240.315456</ele>
        <time>2025-11-27T08:37:37.071Z</time>
      </trkpt>
      <trkpt lat="42.496375" lon="13.543720">
        <ele>1241.287659</ele>
        <time>2025-11-27T08:37:54.088Z</time>
      </trkpt>
      <trkpt lat="42.496107" lon="13.543551">
        <ele>1243.291033</ele>
        <time>2025-11-27T08:38:29.891Z</time>
      </trkpt>
      <trkpt lat="42.495896" lon="13.543491">
        <ele>1244.752377</ele>
        <time>2025-11-27T08:38:56.726Z</time>
      </trkpt>
      <trkpt lat="42.495644" lon="13.543564">
        <ele>1246.499068</ele>
        <time>2025-11-27T08:39:29.362Z</time>
      </trkpt>
      <trkpt lat="42.495221" lon="13.543345">
        <ele>1249.884301</ele>
        <time>2025-11-27T08:40:28.665Z</time>
      </trkpt>
      <trkpt lat="42.494766" lon="13.543385">
        <ele>1254.215833</ele>
        <time>2025-11-27T08:41:29.975Z</time>
      </trkpt>
      <trkpt lat="42.494502" lon="13.543570">
        <ele>1257.038812</ele>
        <time>2025-11-27T08:42:09.572Z</time>
      </trkpt>
      <trkpt lat="42.494040" lon="13.543630">
        <ele>1261.447849</ele>
        <time>2025-11-27T08:43:10.583Z</time>
      </trkpt>
      <trkpt lat="42.493586" lon="13.543624">
        <ele>1265.761015</ele>
        <time>2025-11-27T08:44:10.001Z</time>
      </trkpt>
      <trkpt lat="42.493304" lon="13.543779">
        <ele>1268.883255</ele>
        <time>2025-11-27T08:44:50.055Z</time>
      </trkpt>
      <trkpt lat="42.492842" lon="13.543848">
        <ele>1273.666089</ele>
        <time>2025-11-27T08:45:52.401Z</time>
      </trkpt>
      <trkpt lat="42.492273" lon="13.543679">
        <ele>1279.660012</ele>
        <time>2025-11-27T08:47:11.713Z</time>
      </trkpt>
      <trkpt lat="42.491946" lon="13.543340">
        <ele>1283.895460</ele>
        <time>2025-11-27T08:48:07.943Z</time>
      </trkpt>
      <trkpt lat="42.491706" lon="13.543201">
        <ele>1287.292613</ele>
        <time>2025-11-27T08:48:43.271Z</time>
      </trkpt>
      <trkpt lat="42.491380" lon="13.543234">
        <ele>1291.742474</ele>
        <time>2025-11-27T08:49:27.361Z</time>
      </trkpt>
      <trkpt lat="42.491163" lon="13.543432">
        <ele>1295.302617</ele>
        <time>2025-11-27T08:50:02.574Z</time>
      </trkpt>
      <trkpt lat="42.490927" lon="13.543518">
        <ele>1298.629006</ele>
        <time>2025-11-27T08:50:35.551Z</time>
      </trkpt>
      <trkpt lat="42.490294" lon="13.543520">
        <ele>1307.245434</ele>
        <time>2025-11-27T08:52:22.109Z</time>
      </trkpt>
      <trkpt lat="42.489840" lon="13.543660">
        <ele>1317.278725</ele>
        <time>2025-11-27T08:53:56.961Z</time>
      </trkpt>
      <trkpt lat="42.489550" lon="13.543872">
        <ele>1325.271746</ele>
        <time>2025-11-27T08:55:09.559Z</time>
      </trkpt>
      <trkpt lat="42.489468" lon="13.544037">
        <ele>1328.831495</ele>
        <time>2025-11-27T08:55:42.843Z</time>
      </trkpt>
      <trkpt lat="42.489336" lon="13.544123">
        <ele>1332.384441</ele>
        <time>2025-11-27T08:56:16.475Z</time>
      </trkpt>
      <trkpt lat="42.488949" lon="13.544041">
        <ele>1341.887584</ele>
        <time>2025-11-27T08:57:51.493Z</time>
      </trkpt>
      <trkpt lat="42.488717" lon="13.543889">
        <ele>1348.138755</ele>
        <time>2025-11-27T08:58:55.819Z</time>
      </trkpt>
      <trkpt lat="42.488344" lon="13.543735">
        <ele>1359.265424</ele>
        <time>2025-11-27T09:00:29.061Z</time>
      </trkpt>
      <trkpt lat="42.488010" lon="13.543650">
        <ele>1370.204499</ele>
        <time>2025-11-27T09:01:52.501Z</time>
      </trkpt>
      <trkpt lat="42.487794" lon="13.543384">
        <ele>1379.596653</ele>
        <time>2025-11-27T09:03:07.081Z</time>
      </trkpt>
      <trkpt lat="42.487669" lon="13.543555">
        <ele>1385.312131</ele>
        <time>2025-11-27T09:03:54.725Z</time>
      </trkpt>
      <trkpt lat="42.487556" lon="13.543544">
        <ele>1388.958936</ele>
        <time>2025-11-27T09:04:26.453Z</time>
      </trkpt>
      <trkpt lat="42.487313" lon="13.543218">
        <ele>1399.962077</ele>
        <time>2025-11-27T09:06:07.820Z</time>
      </trkpt>
      <trkpt lat="42.487121" lon="13.543055">
        <ele>1407.253772</ele>
        <time>2025-11-27T09:07:18.458Z</time>
      </trkpt>
      <trkpt lat="42.486914" lon="13.543102">
        <ele>1413.365505</ele>
        <time>2025-11-27T09:08:25.000Z</time>
      </trkpt>
      <trkpt lat="42.486591" lon="13.542817">
        <ele>1423.558960</ele>
        <time>2025-11-27T09:10:28.661Z</time>
      </trkpt>
      <trkpt lat="42.486307" lon="13.542653">
        <ele>1431.724123</ele>
        <time>2025-11-27T09:11:59.562Z</time>
      </trkpt>
      <trkpt lat="42.486006" lon="13.542563">
        <ele>1439.877430</ele>
        <time>2025-11-27T09:13:18.359Z</time>
      </trkpt>
      <trkpt lat="42.485898" lon="13.542587">
        <ele>1442.772352</ele>
        <time>2025-11-27T09:13:42.951Z</time>
      </trkpt>
      <trkpt lat="42.485785" lon="13.542623">
        <ele>1445.842812</ele>
        <time>2025-11-27T09:14:07.457Z</time>
      </trkpt>
      <trkpt lat="42.485862" lon="13.542758">
        <ele>1449.172003</ele>
        <time>2025-11-27T09:14:30.720Z</time>
      </trkpt>
      <trkpt lat="42.486093" lon="13.542889">
        <ele>1455.795233</ele>
        <time>2025-11-27T09:15:08.753Z</time>
      </trkpt>
      <trkpt lat="42.486238" lon="13.543153">
        <ele>1458.015842</ele>
        <time>2025-11-27T09:15:38.192Z</time>
      </trkpt>
      <trkpt lat="42.486317" lon="13.543433">
        <ele>1458.075081</ele>
        <time>2025-11-27T09:16:00.842Z</time>
      </trkpt>
      <trkpt lat="42.486495" lon="13.543772">
        <ele>1458.157314</ele>
        <time>2025-11-27T09:16:32.844Z</time>
      </trkpt>
      <trkpt lat="42.486835" lon="13.544119">
        <ele>1458.271339</ele>
        <time>2025-11-27T09:17:19.854Z</time>
      </trkpt>
      <trkpt lat="42.486941" lon="13.544328">
        <ele>1458.321461</ele>
        <time>2025-11-27T09:17:40.542Z</time>
      </trkpt>
      <trkpt lat="42.487294" lon="13.544785">
        <ele>1458.452235</ele>
        <time>2025-11-27T09:18:32.851Z</time>
      </trkpt>
      <trkpt lat="42.487640" lon="13.545091">
        <ele>1461.702525</ele>
        <time>2025-11-27T09:19:16.872Z</time>
      </trkpt>
      <trkpt lat="42.488082" lon="13.545431">
        <ele>1465.793056</ele>
        <time>2025-11-27T09:20:20.404Z</time>
      </trkpt>
      <trkpt lat="42.488628" lon="13.546386">
        <ele>1472.978765</ele>
        <time>2025-11-27T09:22:26.724Z</time>
      </trkpt>
      <trkpt lat="42.488887" lon="13.546669">
        <ele>1476.687641</ele>
        <time>2025-11-27T09:23:26.295Z</time>
      </trkpt>
      <trkpt lat="42.489024" lon="13.546907">
        <ele>1479.170284</ele>
        <time>2025-11-27T09:24:06.819Z</time>
      </trkpt>
      <trkpt lat="42.489263" lon="13.547099">
        <ele>1482.267829</ele>
        <time>2025-11-27T09:24:54.437Z</time>
      </trkpt>
      <trkpt lat="42.489330" lon="13.547264">
        <ele>1483.816656</ele>
        <time>2025-11-27T09:25:16.195Z</time>
      </trkpt>
      <trkpt lat="42.489492" lon="13.547942">
        <ele>1489.676923</ele>
        <time>2025-11-27T09:26:26.974Z</time>
      </trkpt>
      <trkpt lat="42.489609" lon="13.548265">
        <ele>1492.635944</ele>
        <time>2025-11-27T09:26:59.036Z</time>
      </trkpt>
      <trkpt lat="42.490066" lon="13.548581">
        <ele>1492.200744</ele>
        <time>2025-11-27T09:27:51.770Z</time>
      </trkpt>
      <trkpt lat="42.490119" lon="13.548617">
        <ele>1492.103589</ele>
        <time>2025-11-27T09:27:57.985Z</time>
      </trkpt>
      <trkpt lat="42.491070" lon="13.548583">
        <ele>1490.544351</ele>
        <time>2025-11-27T09:29:45.187Z</time>
      </trkpt>
      <trkpt lat="42.491935" lon="13.548328">
        <ele>1495.936356</ele>
        <time>2025-11-27T09:31:13.733Z</time>
      </trkpt>
      <trkpt lat="42.492507" lon="13.548509">
        <ele>1501.922191</ele>
        <time>2025-11-27T09:32:37.125Z</time>
      </trkpt>
      <trkpt lat="42.492770" lon="13.548498">
        <ele>1504.603702</ele>
        <time>2025-11-27T09:33:26.854Z</time>
      </trkpt>
      <trkpt lat="42.493091" lon="13.548894">
        <ele>1508.917811</ele>
        <time>2025-11-27T09:34:55.763Z</time>
      </trkpt>
      <trkpt lat="42.493572" lon="13.549617">
        <ele>1515.025888</ele>
        <time>2025-11-27T09:37:07.768Z</time>
      </trkpt>
      <trkpt lat="42.494047" lon="13.550570">
        <ele>1522.241105</ele>
        <time>2025-11-27T09:38:47.087Z</time>
      </trkpt>
      <trkpt lat="42.494206" lon="13.550757">
        <ele>1523.216686</ele>
        <time>2025-11-27T09:39:10.420Z</time>
      </trkpt>
      <trkpt lat="42.494346" lon="13.550789">
        <ele>1521.685807</ele>
        <time>2025-11-27T09:39:27.041Z</time>
      </trkpt>
      <trkpt lat="42.494440" lon="13.550705">
        <ele>1520.471981</ele>
        <time>2025-11-27T09:39:40.349Z</time>
      </trkpt>
      <trkpt lat="42.494559" lon="13.550539">
        <ele>1518.631234</ele>
        <time>2025-11-27T09:40:00.856Z</time>
      </trkpt>
      <trkpt lat="42.494707" lon="13.550429">
        <ele>1516.811452</ele>
        <time>2025-11-27T09:40:21.481Z</time>
      </trkpt>
      <trkpt lat="42.494920" lon="13.550361">
        <ele>1514.451945</ele>
        <time>2025-11-27T09:40:48.639Z</time>
      </trkpt>
      <trkpt lat="42.495063" lon="13.550340">
        <ele>1512.900994</ele>
        <time>2025-11-27T09:41:06.734Z</time>
      </trkpt>
      <trkpt lat="42.495107" lon="13.550363">
        <ele>1512.392531</ele>
        <time>2025-11-27T09:41:12.736Z</time>
      </trkpt>
      <trkpt lat="42.495118" lon="13.550543">
        <ele>1510.956530</ele>
        <time>2025-11-27T09:41:29.540Z</time>
      </trkpt>
      <trkpt lat="42.495167" lon="13.550625">
        <ele>1510.117370</ele>
        <time>2025-11-27T09:41:39.433Z</time>
      </trkpt>
      <trkpt lat="42.495580" lon="13.550992">
        <ele>1504.793318</ele>
        <time>2025-11-27T09:42:42.422Z</time>
      </trkpt>
      <trkpt lat="42.495788" lon="13.551241">
        <ele>1500.740832</ele>
        <time>2025-11-27T09:43:17.552Z</time>
      </trkpt>
      <trkpt lat="42.496367" lon="13.551588">
        <ele>1490.990460</ele>
        <time>2025-11-27T09:44:38.031Z</time>
      </trkpt>
      <trkpt lat="42.496697" lon="13.551735">
        <ele>1485.640258</ele>
        <time>2025-11-27T09:45:23.074Z</time>
      </trkpt>
      <trkpt lat="42.496984" lon="13.551848">
        <ele>1481.037029</ele>
        <time>2025-11-27T09:46:02.605Z</time>
      </trkpt>
      <trkpt lat="42.497312" lon="13.551869">
        <ele>1475.961301</ele>
        <time>2025-11-27T09:46:47.353Z</time>
      </trkpt>
      <trkpt lat="42.497544" lon="13.552076">
        <ele>1471.555213</ele>
        <time>2025-11-27T09:47:25.357Z</time>
      </trkpt>
      <trkpt lat="42.497752" lon="13.552148">
        <ele>1468.149231</ele>
        <time>2025-11-27T09:47:55.016Z</time>
      </trkpt>
      <trkpt lat="42.497947" lon="13.552263">
        <ele>1464.775471</ele>
        <time>2025-11-27T09:48:24.376Z</time>
      </trkpt>
      <trkpt lat="42.498135" lon="13.552439">
        <ele>1461.151036</ele>
        <time>2025-11-27T09:48:55.457Z</time>
      </trkpt>
      <trkpt lat="42.498606" lon="13.553285">
        <ele>1448.749819</ele>
        <time>2025-11-27T09:50:36.597Z</time>
      </trkpt>
      <trkpt lat="42.499047" lon="13.554143">
        <ele>1442.911170</ele>
        <time>2025-11-27T09:52:09.672Z</time>
      </trkpt>
      <trkpt lat="42.499611" lon="13.555142">
        <ele>1436.364705</ele>
        <time>2025-11-27T09:53:51.660Z</time>
      </trkpt>
      <trkpt lat="42.499746" lon="13.555417">
        <ele>1434.853747</ele>
        <time>2025-11-27T09:54:16.102Z</time>
      </trkpt>
      <trkpt lat="42.499922" lon="13.556432">
        <ele>1431.048340</ele>
        <time>2025-11-27T09:55:35.979Z</time>
      </trkpt>
      <trkpt lat="42.499936" lon="13.556843">
        <ele>1429.546760</ele>
        <time>2025-11-27T09:56:08.697Z</time>
      </trkpt>
      <trkpt lat="42.500269" lon="13.556704">
        <ele>1427.822088</ele>
        <time>2025-11-27T09:56:47.832Z</time>
      </trkpt>
      <trkpt lat="42.500445" lon="13.556501">
        <ele>1426.678458</ele>
        <time>2025-11-27T09:57:14.971Z</time>
      </trkpt>
      <trkpt lat="42.500661" lon="13.556346">
        <ele>1423.949596</ele>
        <time>2025-11-27T09:57:44.699Z</time>
      </trkpt>
      <trkpt lat="42.500813" lon="13.556156">
        <ele>1421.324084</ele>
        <time>2025-11-27T09:58:10.675Z</time>
      </trkpt>
      <trkpt lat="42.501008" lon="13.555970">
        <ele>1418.296101</ele>
        <time>2025-11-27T09:58:41.278Z</time>
      </trkpt>
      <trkpt lat="42.501211" lon="13.555827">
        <ele>1415.390635</ele>
        <time>2025-11-27T09:59:10.464Z</time>
      </trkpt>
      <trkpt lat="42.501828" lon="13.555556">
        <ele>1407.152990</ele>
        <time>2025-11-27T10:00:32.553Z</time>
      </trkpt>
      <trkpt lat="42.502432" lon="13.554960">
        <ele>1398.567742</ele>
        <time>2025-11-27T10:02:06.261Z</time>
      </trkpt>
      <trkpt lat="42.502635" lon="13.554947">
        <ele>1396.379219</ele>
        <time>2025-11-27T10:02:31.369Z</time>
      </trkpt>
      <trkpt lat="42.502935" lon="13.555045">
        <ele>1393.056179</ele>
        <time>2025-11-27T10:03:09.041Z</time>
      </trkpt>
      <trkpt lat="42.503227" lon="13.555023">
        <ele>1389.906812</ele>
        <time>2025-11-27T10:03:44.295Z</time>
      </trkpt>
      <trkpt lat="42.503768" lon="13.554761">
        <ele>1383.952295</ele>
        <time>2025-11-27T10:04:52.111Z</time>
      </trkpt>
      <trkpt lat="42.504152" lon="13.554478">
        <ele>1381.413688</ele>
        <time>2025-11-27T10:05:41.820Z</time>
      </trkpt>
      <trkpt lat="42.504457" lon="13.554174">
        <ele>1379.215078</ele>
        <time>2025-11-27T10:06:23.893Z</time>
      </trkpt>
      <trkpt lat="42.504855" lon="13.553985">
        <ele>1376.765541</ele>
        <time>2025-11-27T10:07:10.303Z</time>
      </trkpt>
      <trkpt lat="42.505251" lon="13.553743">
        <ele>1374.242534</ele>
        <time>2025-11-27T10:07:57.818Z</time>
      </trkpt>
      <trkpt lat="42.505399" lon="13.553688">
        <ele>1373.374296</ele>
        <time>2025-11-27T10:08:14.591Z</time>
      </trkpt>
      <trkpt lat="42.505517" lon="13.553684">
        <ele>1372.726062</ele>
        <time>2025-11-27T10:08:27.549Z</time>
      </trkpt>
      <trkpt lat="42.506171" lon="13.553810">
        <ele>1369.098382</ele>
        <time>2025-11-27T10:09:39.824Z</time>
      </trkpt>
      <trkpt lat="42.506929" lon="13.553844">
        <ele>1364.933326</ele>
        <time>2025-11-27T10:11:03.603Z</time>
      </trkpt>
      <trkpt lat="42.506998" lon="13.553874">
        <ele>1364.535404</ele>
        <time>2025-11-27T10:11:11.835Z</time>
      </trkpt>
      <trkpt lat="42.507157" lon="13.553971">
        <ele>1363.141849</ele>
        <time>2025-11-27T10:11:31.920Z</time>
      </trkpt>
      <trkpt lat="42.507220" lon="13.554039">
        <ele>1362.096496</ele>
        <time>2025-11-27T10:11:41.262Z</time>
      </trkpt>
      <trkpt lat="42.507394" lon="13.553835">
        <ele>1359.110377</ele>
        <time>2025-11-27T10:12:08.321Z</time>
      </trkpt>
      <trkpt lat="42.507531" lon="13.554017">
        <ele>1356.620609</ele>
        <time>2025-11-27T10:12:31.312Z</time>
      </trkpt>
      <trkpt lat="42.507739" lon="13.554184">
        <ele>1353.482324</ele>
        <time>2025-11-27T10:13:00.958Z</time>
      </trkpt>
      <trkpt lat="42.507729" lon="13.554216">
        <ele>1353.149647</ele>
        <time>2025-11-27T10:13:04.090Z</time>
      </trkpt>
      <trkpt lat="42.507800" lon="13.554322">
        <ele>1351.778789</ele>
        <time>2025-11-27T10:13:17.345Z</time>
      </trkpt>
      <trkpt lat="42.507914" lon="13.554340">
        <ele>1350.288611</ele>
        <time>2025-11-27T10:13:31.837Z</time>
      </trkpt>
      <trkpt lat="42.508061" lon="13.554541">
        <ele>1347.578561</ele>
        <time>2025-11-27T10:13:58.665Z</time>
      </trkpt>
      <trkpt lat="42.508219" lon="13.554690">
        <ele>1345.080051</ele>
        <time>2025-11-27T10:14:23.977Z</time>
      </trkpt>
      <trkpt lat="42.508267" lon="13.554702">
        <ele>1344.446319</ele>
        <time>2025-11-27T10:14:30.706Z</time>
      </trkpt>
      <trkpt lat="42.508295" lon="13.554784">
        <ele>1343.581337</ele>
        <time>2025-11-27T10:14:39.880Z</time>
      </trkpt>
      <trkpt lat="42.508494" lon="13.555029">
        <ele>1339.937899</ele>
        <time>2025-11-27T10:15:17.832Z</time>
      </trkpt>
      <trkpt lat="42.508617" lon="13.555134">
        <ele>1337.407431</ele>
        <time>2025-11-27T10:15:38.357Z</time>
      </trkpt>
      <trkpt lat="42.508780" lon="13.555214">
        <ele>1334.389210</ele>
        <time>2025-11-27T10:16:02.849Z</time>
      </trkpt>
      <trkpt lat="42.508935" lon="13.555356">
        <ele>1331.132517</ele>
        <time>2025-11-27T10:16:29.350Z</time>
      </trkpt>
      <trkpt lat="42.509128" lon="13.555341">
        <ele>1327.766473</ele>
        <time>2025-11-27T10:16:56.618Z</time>
      </trkpt>
      <trkpt lat="42.509168" lon="13.555380">
        <ele>1326.908754</ele>
        <time>2025-11-27T10:17:03.666Z</time>
      </trkpt>
      <trkpt lat="42.509202" lon="13.555373">
        <ele>1326.309964</ele>
        <time>2025-11-27T10:17:08.404Z</time>
      </trkpt>
      <trkpt lat="42.509400" lon="13.555469">
        <ele>1322.648780</ele>
        <time>2025-11-27T10:17:37.891Z</time>
      </trkpt>
      <trkpt lat="42.509448" lon="13.555455">
        <ele>1321.793900</ele>
        <time>2025-11-27T10:17:44.658Z</time>
      </trkpt>
      <trkpt lat="42.509706" lon="13.555539">
        <ele>1317.174006</ele>
        <time>2025-11-27T10:18:20.709Z</time>
      </trkpt>
      <trkpt lat="42.509837" lon="13.555539">
        <ele>1314.893022</ele>
        <time>2025-11-27T10:18:38.057Z</time>
      </trkpt>
      <trkpt lat="42.509930" lon="13.555581">
        <ele>1313.186320</ele>
        <time>2025-11-27T10:18:50.942Z</time>
      </trkpt>
      <trkpt lat="42.509943" lon="13.555638">
        <ele>1312.420481</ele>
        <time>2025-11-27T10:18:56.671Z</time>
      </trkpt>
      <trkpt lat="42.510137" lon="13.555729">
        <ele>1308.938121</ele>
        <time>2025-11-27T10:19:23.293Z</time>
      </trkpt>
      <trkpt lat="42.510241" lon="13.555736">
        <ele>1307.563758</ele>
        <time>2025-11-27T10:19:36.716Z</time>
      </trkpt>
      <trkpt lat="42.510228" lon="13.555765">
        <ele>1307.233524</ele>
        <time>2025-11-27T10:19:40.026Z</time>
      </trkpt>
      <trkpt lat="42.510295" lon="13.555787">
        <ele>1306.323668</ele>
        <time>2025-11-27T10:19:48.913Z</time>
      </trkpt>
      <trkpt lat="42.510564" lon="13.555581">
        <ele>1302.246532</ele>
        <time>2025-11-27T10:20:27.891Z</time>
      </trkpt>
      <trkpt lat="42.510854" lon="13.555521">
        <ele>1298.374622</ele>
        <time>2025-11-27T10:21:04.395Z</time>
      </trkpt>
      <trkpt lat="42.511020" lon="13.555548">
        <ele>1296.167930</ele>
        <time>2025-11-27T10:21:25.004Z</time>
      </trkpt>
      <trkpt lat="42.511124" lon="13.555455">
        <ele>1294.523860</ele>
        <time>2025-11-27T10:21:40.280Z</time>
      </trkpt>
      <trkpt lat="42.511406" lon="13.555444">
        <ele>1290.800262</ele>
        <time>2025-11-27T10:22:14.967Z</time>
      </trkpt>
      <trkpt lat="42.511481" lon="13.555379">
        <ele>1289.625586</ele>
        <time>2025-11-27T10:22:25.986Z</time>
      </trkpt>
      <trkpt lat="42.511557" lon="13.555430">
        <ele>1288.506462</ele>
        <time>2025-11-27T10:22:36.525Z</time>
      </trkpt>
      <trkpt lat="42.511624" lon="13.555437">
        <ele>1287.619524</ele>
        <time>2025-11-27T10:22:44.787Z</time>
      </trkpt>
      <trkpt lat="42.511809" lon="13.555403">
        <ele>1285.138016</ele>
        <time>2025-11-27T10:23:08.110Z</time>
      </trkpt>
      <trkpt lat="42.512038" lon="13.555548">
        <ele>1281.626550</ele>
        <time>2025-11-27T10:23:40.141Z</time>
      </trkpt>
      <trkpt lat="42.512122" lon="13.555579">
        <ele>1280.416960</ele>
        <time>2025-11-27T10:23:51.204Z</time>
      </trkpt>
      <trkpt lat="42.512179" lon="13.555549">
        <ele>1279.567433</ele>
        <time>2025-11-27T10:23:59.065Z</time>
      </trkpt>
      <trkpt lat="42.512209" lon="13.555567">
        <ele>1279.111635</ele>
        <time>2025-11-27T10:24:03.310Z</time>
      </trkpt>
      <trkpt lat="42.512264" lon="13.555609">
        <ele>1278.234659</ele>
        <time>2025-11-27T10:24:11.441Z</time>
      </trkpt>
      <trkpt lat="42.512278" lon="13.555677">
        <ele>1277.511520</ele>
        <time>2025-11-27T10:24:18.085Z</time>
      </trkpt>
      <trkpt lat="42.512262" lon="13.555664">
        <ele>1277.252378</ele>
        <time>2025-11-27T10:24:20.407Z</time>
      </trkpt>
      <trkpt lat="42.512316" lon="13.555757">
        <ele>1276.039808</ele>
        <time>2025-11-27T10:24:31.595Z</time>
      </trkpt>
      <trkpt lat="42.512456" lon="13.555833">
        <ele>1273.944556</ele>
        <time>2025-11-27T10:24:51.076Z</time>
      </trkpt>
      <trkpt lat="42.512530" lon="13.555917">
        <ele>1272.603862</ele>
        <time>2025-11-27T10:25:03.491Z</time>
      </trkpt>
      <trkpt lat="42.512601" lon="13.555957">
        <ele>1271.535636</ele>
        <time>2025-11-27T10:25:13.404Z</time>
      </trkpt>
      <trkpt lat="42.512709" lon="13.555959">
        <ele>1270.034846</ele>
        <time>2025-11-27T10:25:27.319Z</time>
      </trkpt>
      <trkpt lat="42.512775" lon="13.556009">
        <ele>1268.984479</ele>
        <time>2025-11-27T10:25:37.033Z</time>
      </trkpt>
      <trkpt lat="42.512906" lon="13.556021">
        <ele>1267.160101</ele>
        <time>2025-11-27T10:25:53.814Z</time>
      </trkpt>
      <trkpt lat="42.513041" lon="13.555959">
        <ele>1265.179716</ele>
        <time>2025-11-27T10:26:11.712Z</time>
      </trkpt>
      <trkpt lat="42.513059" lon="13.555846">
        <ele>1263.995624</ele>
        <time>2025-11-27T10:26:22.415Z</time>
      </trkpt>
      <trkpt lat="42.513117" lon="13.555765">
        <ele>1262.839010</ele>
        <time>2025-11-27T10:26:32.751Z</time>
      </trkpt>
      <trkpt lat="42.513247" lon="13.555667">
        <ele>1260.772526</ele>
        <time>2025-11-27T10:26:51.356Z</time>
      </trkpt>
      <trkpt lat="42.513307" lon="13.555573">
        <ele>1259.450533</ele>
        <time>2025-11-27T10:27:02.915Z</time>
      </trkpt>
      <trkpt lat="42.513332" lon="13.555479">
        <ele>1258.377194</ele>
        <time>2025-11-27T10:27:12.156Z</time>
      </trkpt>
      <trkpt lat="42.513329" lon="13.555381">
        <ele>1257.323693</ele>
        <time>2025-11-27T10:27:21.319Z</time>
      </trkpt>
      <trkpt lat="42.513464" lon="13.555217">
        <ele>1254.683168</ele>
        <time>2025-11-27T10:27:44.381Z</time>
      </trkpt>
      <trkpt lat="42.513419" lon="13.555091">
        <ele>1253.179353</ele>
        <time>2025-11-27T10:27:57.501Z</time>
      </trkpt>
      <trkpt lat="42.513303" lon="13.554976">
        <ele>1251.085868</ele>
        <time>2025-11-27T10:28:15.574Z</time>
      </trkpt>
      <trkpt lat="42.513394" lon="13.554998">
        <ele>1249.738995</ele>
        <time>2025-11-27T10:28:27.347Z</time>
      </trkpt>
      <trkpt lat="42.513408" lon="13.554937">
        <ele>1249.052786</ele>
        <time>2025-11-27T10:28:33.294Z</time>
      </trkpt>
      <trkpt lat="42.513512" lon="13.554923">
        <ele>1247.529934</ele>
        <time>2025-11-27T10:28:46.683Z</time>
      </trkpt>
      <trkpt lat="42.513634" lon="13.554849">
        <ele>1245.582650</ele>
        <time>2025-11-27T10:29:03.597Z</time>
      </trkpt>
      <trkpt lat="42.513836" lon="13.554886">
        <ele>1242.612552</ele>
        <time>2025-11-27T10:29:29.625Z</time>
      </trkpt>
      <trkpt lat="42.513988" lon="13.554862">
        <ele>1240.382773</ele>
        <time>2025-11-27T10:29:49.325Z</time>
      </trkpt>
      <trkpt lat="42.514160" lon="13.554920">
        <ele>1237.800258</ele>
        <time>2025-11-27T10:30:12.332Z</time>
      </trkpt>
      <trkpt lat="42.514197" lon="13.554903">
        <ele>1237.231043</ele>
        <time>2025-11-27T10:30:17.404Z</time>
      </trkpt>
      <trkpt lat="42.514282" lon="13.554988">
        <ele>1235.692374</ele>
        <time>2025-11-27T10:30:31.265Z</time>
      </trkpt>
      <trkpt lat="42.514340" lon="13.554965">
        <ele>1234.811878</ele>
        <time>2025-11-27T10:30:39.324Z</time>
      </trkpt>
      <trkpt lat="42.514428" lon="13.555050">
        <ele>1233.312650</ele>
        <time>2025-11-27T10:30:53.767Z</time>
      </trkpt>
      <trkpt lat="42.514599" lon="13.555003">
        <ele>1230.951969</ele>
        <time>2025-11-27T10:31:18.056Z</time>
      </trkpt>
      <trkpt lat="42.514657" lon="13.555092">
        <ele>1229.767188</ele>
        <time>2025-11-27T10:31:30.198Z</time>
      </trkpt>
      <trkpt lat="42.514834" lon="13.555046">
        <ele>1227.328784</ele>
        <time>2025-11-27T10:31:54.654Z</time>
      </trkpt>
      <trkpt lat="42.515019" lon="13.555066">
        <ele>1224.817749</ele>
        <time>2025-11-27T10:32:18.926Z</time>
      </trkpt>
      <trkpt lat="42.515038" lon="13.555027">
        <ele>1224.351517</ele>
        <time>2025-11-27T10:32:23.319Z</time>
      </trkpt>
      <trkpt lat="42.515132" lon="13.554972">
        <ele>1222.966429</ele>
        <time>2025-11-27T10:32:36.535Z</time>
      </trkpt>
      <trkpt lat="42.515139" lon="13.554940">
        <ele>1222.633531</ele>
        <time>2025-11-27T10:32:39.679Z</time>
      </trkpt>
      <trkpt lat="42.515275" lon="13.554976">
        <ele>1220.758715</ele>
        <time>2025-11-27T10:32:57.333Z</time>
      </trkpt>
      <trkpt lat="42.515305" lon="13.555027">
        <ele>1220.107973</ele>
        <time>2025-11-27T10:33:03.369Z</time>
      </trkpt>
      <trkpt lat="42.515377" lon="13.555042">
        <ele>1219.122375</ele>
        <time>2025-11-27T10:33:12.481Z</time>
      </trkpt>
      <trkpt lat="42.515446" lon="13.555131">
        <ele>1217.834185</ele>
        <time>2025-11-27T10:33:24.370Z</time>
      </trkpt>
      <trkpt lat="42.515518" lon="13.555110">
        <ele>1216.837747</ele>
        <time>2025-11-27T10:33:33.494Z</time>
      </trkpt>
      <trkpt lat="42.515677" lon="13.555220">
        <ele>1214.422868</ele>
        <time>2025-11-27T10:33:55.122Z</time>
      </trkpt>
      <trkpt lat="42.516339" lon="13.555497">
        <ele>1206.928940</ele>
        <time>2025-11-27T10:35:16.916Z</time>
      </trkpt>
      <trkpt lat="42.516679" lon="13.555426">
        <ele>1204.059820</ele>
        <time>2025-11-27T10:35:56.614Z</time>
      </trkpt>
      <trkpt lat="42.517202" lon="13.555527">
        <ele>1199.653838</ele>
        <time>2025-11-27T10:36:57.870Z</time>
      </trkpt>
      <trkpt lat="42.517451" lon="13.555512">
        <ele>1197.575039</ele>
        <time>2025-11-27T10:37:27.047Z</time>
      </trkpt>
      <trkpt lat="42.517657" lon="13.555462">
        <ele>1195.829645</ele>
        <time>2025-11-27T10:37:51.458Z</time>
      </trkpt>
      <trkpt lat="42.518193" lon="13.555659">
        <ele>1191.270396</ele>
        <time>2025-11-27T10:38:55.713Z</time>
      </trkpt>
      <trkpt lat="42.518511" lon="13.555715">
        <ele>1188.647491</ele>
        <time>2025-11-27T10:39:32.231Z</time>
      </trkpt>
      <trkpt lat="42.518718" lon="13.555702">
        <ele>1186.952518</ele>
        <time>2025-11-27T10:39:55.853Z</time>
      </trkpt>
      <trkpt lat="42.518808" lon="13.555730">
        <ele>1186.197255</ele>
        <time>2025-11-27T10:40:06.490Z</time>
      </trkpt>
      <trkpt lat="42.519063" lon="13.555658">
        <ele>1184.066790</ele>
        <time>2025-11-27T10:40:36.755Z</time>
      </trkpt>
      <trkpt lat="42.519125" lon="13.555596">
        <ele>1183.436795</ele>
        <time>2025-11-27T10:40:45.705Z</time>
      </trkpt>
      <trkpt lat="42.519337" lon="13.555477">
        <ele>1181.560191</ele>
        <time>2025-11-27T10:41:12.394Z</time>
      </trkpt>
      <trkpt lat="42.519587" lon="13.555520">
        <ele>1178.648087</ele>
        <time>2025-11-27T10:41:42.094Z</time>
      </trkpt>
      <trkpt lat="42.519667" lon="13.555607">
        <ele>1176.841223</ele>
        <time>2025-11-27T10:41:54.354Z</time>
      </trkpt>
      <trkpt lat="42.519709" lon="13.555696">
        <ele>1175.468529</ele>
        <time>2025-11-27T10:42:03.813Z</time>
      </trkpt>
      <trkpt lat="42.519860" lon="13.555709">
        <ele>1172.802054</ele>
        <time>2025-11-27T10:42:22.308Z</time>
      </trkpt>
      <trkpt lat="42.519899" lon="13.555683">
        <ele>1172.036255</ele>
        <time>2025-11-27T10:42:27.717Z</time>
      </trkpt>
      <trkpt lat="42.519851" lon="13.555795">
        <ele>1170.353407</ele>
        <time>2025-11-27T10:42:39.720Z</time>
      </trkpt>
      <trkpt lat="42.519915" lon="13.555874">
        <ele>1168.828575</ele>
        <time>2025-11-27T10:42:50.732Z</time>
      </trkpt>
      <trkpt lat="42.520025" lon="13.555873">
        <ele>1166.889966</ele>
        <time>2025-11-27T10:43:05.014Z</time>
      </trkpt>
      <trkpt lat="42.520133" lon="13.555803">
        <ele>1164.780620</ele>
        <time>2025-11-27T10:43:21.358Z</time>
      </trkpt>
      <trkpt lat="42.520173" lon="13.555820">
        <ele>1164.041912</ele>
        <time>2025-11-27T10:43:27.374Z</time>
      </trkpt>
      <trkpt lat="42.520240" lon="13.555799">
        <ele>1162.830052</ele>
        <time>2025-11-27T10:43:37.295Z</time>
      </trkpt>
      <trkpt lat="42.520551" lon="13.555422">
        <ele>1155.480284</ele>
        <time>2025-11-27T10:44:42.417Z</time>
      </trkpt>
      <trkpt lat="42.520742" lon="13.555303">
        <ele>1151.776302</ele>
        <time>2025-11-27T10:45:14.432Z</time>
      </trkpt>
      <trkpt lat="42.520830" lon="13.555170">
        <ele>1149.454770</ele>
        <time>2025-11-27T10:45:35.200Z</time>
      </trkpt>
      <trkpt lat="42.520902" lon="13.555167">
        <ele>1147.956452</ele>
        <time>2025-11-27T10:45:46.673Z</time>
      </trkpt>
      <trkpt lat="42.521056" lon="13.554991">
        <ele>1142.104465</ele>
        <time>2025-11-27T10:46:20.585Z</time>
      </trkpt>
      <trkpt lat="42.521174" lon="13.554718">
        <ele>1135.325196</ele>
        <time>2025-11-27T10:47:01.851Z</time>
      </trkpt>
      <trkpt lat="42.521226" lon="13.554670">
        <ele>1133.497301</ele>
        <time>2025-11-27T10:47:13.550Z</time>
      </trkpt>
      <trkpt lat="42.521235" lon="13.554585">
        <ele>1131.657859</ele>
        <time>2025-11-27T10:47:24.914Z</time>
      </trkpt>
      <trkpt lat="42.521315" lon="13.554549">
        <ele>1129.208237</ele>
        <time>2025-11-27T10:47:40.733Z</time>
      </trkpt>
      <trkpt lat="42.521398" lon="13.554249">
        <ele>1122.344233</ele>
        <time>2025-11-27T10:48:24.942Z</time>
      </trkpt>
      <trkpt lat="42.521433" lon="13.554250">
        <ele>1121.326785</ele>
        <time>2025-11-27T10:48:31.754Z</time>
      </trkpt>
      <trkpt lat="42.521502" lon="13.554446">
        <ele>1116.674018</ele>
        <time>2025-11-27T10:49:02.210Z</time>
      </trkpt>
      <trkpt lat="42.521537" lon="13.554424">
        <ele>1115.552939</ele>
        <time>2025-11-27T10:49:09.757Z</time>
      </trkpt>
      <trkpt lat="42.521687" lon="13.554084">
        <ele>1107.064900</ele>
        <time>2025-11-27T10:50:06.171Z</time>
      </trkpt>
      <trkpt lat="42.521695" lon="13.553778">
        <ele>1100.506131</ele>
        <time>2025-11-27T10:50:48.385Z</time>
      </trkpt>
      <trkpt lat="42.521770" lon="13.553379">
        <ele>1092.925008</ele>
        <time>2025-11-27T10:51:46.810Z</time>
      </trkpt>
      <trkpt lat="42.521777" lon="13.553100">
        <ele>1088.564187</ele>
        <time>2025-11-27T10:52:29.204Z</time>
      </trkpt>
      <trkpt lat="42.521814" lon="13.552954">
        <ele>1086.152442</ele>
        <time>2025-11-27T10:52:52.143Z</time>
      </trkpt>
      <trkpt lat="42.521882" lon="13.552896">
        <ele>1084.450059</ele>
        <time>2025-11-27T10:53:08.322Z</time>
      </trkpt>
      <trkpt lat="42.521970" lon="13.552921">
        <ele>1082.544455</ele>
        <time>2025-11-27T10:53:26.276Z</time>
      </trkpt>
      <trkpt lat="42.521770" lon="13.552522">
        <ele>1075.006739</ele>
        <time>2025-11-27T10:54:32.728Z</time>
      </trkpt>
      <trkpt lat="42.521680" lon="13.552520">
        <ele>1073.098936</ele>
        <time>2025-11-27T10:54:46.576Z</time>
      </trkpt>
      <trkpt lat="42.521639" lon="13.552460">
        <ele>1071.820802</ele>
        <time>2025-11-27T10:54:55.620Z</time>
      </trkpt>
      <trkpt lat="42.521603" lon="13.552368">
        <ele>1070.193660</ele>
        <time>2025-11-27T10:55:05.803Z</time>
      </trkpt>
      <trkpt lat="42.521659" lon="13.552322">
        <ele>1068.806171</ele>
        <time>2025-11-27T10:55:14.473Z</time>
      </trkpt>
      <trkpt lat="42.521931" lon="13.552262">
        <ele>1062.965445</ele>
        <time>2025-11-27T10:55:47.674Z</time>
      </trkpt>
      <trkpt lat="42.522258" lon="13.552190">
        <ele>1058.432530</ele>
        <time>2025-11-27T10:56:22.759Z</time>
      </trkpt>
      <trkpt lat="42.522326" lon="13.552319">
        <ele>1058.761569</ele>
        <time>2025-11-27T10:56:35.534Z</time>
      </trkpt>
      <trkpt lat="42.522404" lon="13.552360">
        <ele>1058.997036</ele>
        <time>2025-11-27T10:56:44.873Z</time>
      </trkpt>
      <trkpt lat="42.522368" lon="13.552485">
        <ele>1059.275465</ele>
        <time>2025-11-27T10:56:56.055Z</time>
      </trkpt>
      <trkpt lat="42.522436" lon="13.552611">
        <ele>1059.599462</ele>
        <time>2025-11-27T10:57:09.902Z</time>
      </trkpt>
      <trkpt lat="42.522401" lon="13.552782">
        <ele>1059.967655</ele>
        <time>2025-11-27T10:57:26.015Z</time>
      </trkpt>
      <trkpt lat="42.522382" lon="13.552871">
        <ele>1060.159890</ele>
        <time>2025-11-27T10:57:34.647Z</time>
      </trkpt>
      <trkpt lat="42.522295" lon="13.553021">
        <ele>1060.555896</ele>
        <time>2025-11-27T10:57:53.064Z</time>
      </trkpt>
      <trkpt lat="42.522316" lon="13.553059">
        <ele>1060.654434</ele>
        <time>2025-11-27T10:57:57.720Z</time>
      </trkpt>
      <trkpt lat="42.522255" lon="13.553220">
        <ele>1061.030007</ele>
        <time>2025-11-27T10:58:15.265Z</time>
      </trkpt>
      <trkpt lat="42.522103" lon="13.553390">
        <ele>1061.584505</ele>
        <time>2025-11-27T10:58:42.242Z</time>
      </trkpt>
      <trkpt lat="42.522121" lon="13.553518">
        <ele>1061.854853</ele>
        <time>2025-11-27T10:58:55.439Z</time>
      </trkpt>
      <trkpt lat="42.522198" lon="13.553750">
        <ele>1062.382728</ele>
        <time>2025-11-27T10:59:19.021Z</time>
      </trkpt>
      <trkpt lat="42.522206" lon="13.553969">
        <ele>1062.837637</ele>
        <time>2025-11-27T10:59:36.697Z</time>
      </trkpt>
      <trkpt lat="42.522266" lon="13.553957">
        <ele>1063.008359</ele>
        <time>2025-11-27T10:59:43.056Z</time>
      </trkpt>
      <trkpt lat="42.522332" lon="13.553602">
        <ele>1063.203871</ele>
        <time>2025-11-27T11:00:12.501Z</time>
      </trkpt>
      <trkpt lat="42.522461" lon="13.553388">
        <ele>1063.203871</ele>
        <time>2025-11-27T11:00:36.370Z</time>
      </trkpt>
      <trkpt lat="42.522513" lon="13.553194">
        <ele>1063.203871</ele>
        <time>2025-11-27T11:00:54.490Z</time>
      </trkpt>
      <trkpt lat="42.522612" lon="13.553034">
        <ele>1063.203871</ele>
        <time>2025-11-27T11:01:13.455Z</time>
      </trkpt>
      <trkpt lat="42.522651" lon="13.552899">
        <ele>1063.203871</ele>
        <time>2025-11-27T11:01:26.647Z</time>
      </trkpt>
      <trkpt lat="42.522651" lon="13.552650">
        <ele>1063.203871</ele>
        <time>2025-11-27T11:01:49.634Z</time>
      </trkpt>
      <trkpt lat="42.522706" lon="13.552681">
        <ele>1063.203871</ele>
        <time>2025-11-27T11:01:56.918Z</time>
      </trkpt>
      <trkpt lat="42.522762" lon="13.552713">
        <ele>1063.203871</ele>
        <time>2025-11-27T11:02:04.319Z</time>
      </trkpt>
      <trkpt lat="42.522821" lon="13.552713">
        <ele>1063.203871</ele>
        <time>2025-11-27T11:02:11.673Z</time>
      </trkpt>
      <trkpt lat="42.522855" lon="13.552732">
        <ele>1063.203871</ele>
        <time>2025-11-27T11:02:16.081Z</time>
      </trkpt>
      <trkpt lat="42.522841" lon="13.552991">
        <ele>1063.203871</ele>
        <time>2025-11-27T11:02:39.141Z</time>
      </trkpt>
      <trkpt lat="42.522871" lon="13.553057">
        <ele>1063.203871</ele>
        <time>2025-11-27T11:02:45.953Z</time>
      </trkpt>
      <trkpt lat="42.522855" lon="13.553171">
        <ele>1063.203871</ele>
        <time>2025-11-27T11:02:56.061Z</time>
      </trkpt>
      <trkpt lat="42.522852" lon="13.553233">
        <ele>1063.203871</ele>
        <time>2025-11-27T11:03:01.476Z</time>
      </trkpt>
      <trkpt lat="42.522876" lon="13.553323">
        <ele>1063.203871</ele>
        <time>2025-11-27T11:03:09.726Z</time>
      </trkpt>
      <trkpt lat="42.522892" lon="13.553443">
        <ele>1063.203871</ele>
        <time>2025-11-27T11:03:20.183Z</time>
      </trkpt>
      <trkpt lat="42.522891" lon="13.553548">
        <ele>1063.203871</ele>
        <time>2025-11-27T11:03:29.166Z</time>
      </trkpt>
      <trkpt lat="42.522925" lon="13.553601">
        <ele>1063.203871</ele>
        <time>2025-11-27T11:03:35.097Z</time>
      </trkpt>
    </trkseg>
  </trk>
</gpx>